dealer_code,name,address,city,state,zip,phone,email,website
50012,Kendall Toyota of Anchorage,6930 Old Seward Highway,Anchorage,AK,99518,(907) 279-8506,Ecom50012@toyota.com,https://www.kendalltoyotaofanchorage.com
50013,Kendall Toyota of Fairbanks,1000 Cadillac Court,Fairbanks,AK,99701,(907) 456-6217,Ecom50013@toyota.com,https://www.kendalltoyotaoffairbanks.com
50014,Juneau Toyota,8602 Teal Street,Juneau,AK,99801,(907) 789-1386,,https://www.juneautoyota.com
01083,Sand Mountain Toyota,9167 US Highway 431 N,Albertville,AL,35950,(256) 878-0789,text@sandmountaintoyota.com,https://www.sandmountaintoyota.com
01094,Allen Turner Toyota of Auburn,170 West Creek Parkway,Auburn,AL,36830,(334) 887-1100,,https://www.allenturnertoyotaofauburn.com/
01061,Limbaugh Toyota,2200 Avenue T,Birmingham,AL,35218,(205) 780-0500,sales@limbaughtoyota.com,https://www.limbaughtoyota.com
01059,Serra Toyota,1300 Center Point Parkway,Birmingham,AL,35215,(205) 838-4400,text@serratoyota.com,https://www.serratoyota.com
01033,McKinnon Toyota,235 Price Drive,Clanton,AL,35046,(205) 755-3430,sales@mckinnontoyota.com,https://www.mckinnontoyota.com
01084,Eastern Shore Toyota,29732 Frederick Blvd.,Daphne,AL,36526,(251) 625-1919,schapman@easternshoretoyota.com,https://www.easternshoretoyota.com
01071,Serra Toyota of Decatur,309 Beltline Place,Decatur,AL,35603,(256) 340-0330,sales@toyotaofdecatur.com,https://www.toyotaofdecatur.com
01053,Toyota of Dothan,2285 Ross Clark Circle,Dothan,AL,36301,(334) 794-0741,sales@toyotaofdothan.com,https://www.toyotaofdothan.com
01080,Bondy's Enterprise Toyota,519 Boll Weevil Circle,Enterprise,AL,36330,(334) 347-5200,sales@bondystoyota.com,https://www.bondystoyota.com
01090,Hoover Toyota,2686 Highway 150,Hoover,AL,35244,(205) 978-2600,sales@hoovertoyota.com,https://www.hoovertoyota.com
01007,Bill Penney Toyota,"4808 University Dr., N.W.",Huntsville,AL,35816,(256) 837-1111,zp@billpenney.com,https://www.billpenneytoyota.com
01091,Bill Penney Toyota of Jasper,3815 Hwy 78 E,Jasper,AL,35501,(205) 221-3939,,https://www.billpenneytoyotaofjasper.com
01077,Springhill Toyota,3062 Government Blvd.,Mobile,AL,36606,(251) 450-1000,sales@springhilltoyota.com,https://www.springhilltoyota.com
01096,Toyota West Mobile,470 Schillinger Road South,Mobile,AL,36695,(251) 639-0800,,https://www.toyotawestmobile.com
01095,Toyota of Montgomery,911 Eastern Blvd.,Montgomery,AL,36117,(334) 272-7147,,https://www.toyotamontgomery.com
01089,Toyota of Sylacauga,39765 Highway 280,Sylacauga,AL,35150,(256) 245-5251,,https://www.toyotaofsylacauga.com
01085,Tuscaloosa Toyota,"3325 Skyland Blvd, East",Tuscaloosa,AL,35405,(205) 553-3325,,https://www.tuscaloosatoyota.com
01093,Singing River Toyota,5100 US-43,Tuscumbia,AL,35674,(256) 383-3611,,https://www.singingrivertoyota.com
03068,Caldwell Toyota,1355 Exchange Avenue,Conway,AR,72032,(501) 327-3900,internet@caldwell-toyota.com,https://www.caldwelltoyota.com
03076,Karl Malone Toyota Chevrolet,1830 West Hillsboro,El Dorado,AR,71730,(870) 862-2900,,https://www.karlmalonetoyotaeldorado.com
03066,Toyota of Fayetteville,1352 W. Showroom Drive,Fayetteville,AR,72704,(479) 695-7600,internet@toyotaoffayetteville.com,https://www.toyotaoffayetteville.com
03050,J. Pauley Toyota,6200 South 36th Street,Fort Smith,AR,72908,(479) 646-7800,internet@jpauleytoyota.com,https://www.jpauleytoyota.com
03072,Landers Toyota,10825 Colonel Glenn Road,Little Rock,AR,72204,(501) 568-5800,,https://www.landerstoyota.com
03049,Ryburn Toyota,156 Highway 425 South,Monticello,AR,71655,(870) 367-5353,internet@ryburntoyota.com,https://www.ryburntoyota.com
03074,Mark McLarty Toyota,4336 Landers Road,North Little Rock,AR,72117,(501) 753-0400,,https://www.markmclartytoyota.com
03058,Trotter Toyota,3010 Auto Drive,Pine Bluff,AR,71601,(870) 534-7521,internet@trottertoyota.com,https://www.trottertoyota.com
03073,Landers Toyota NWA,411 South Metro Parkway,Rogers,AR,72758,(479) 845-1444,,https://www.landerstoyotanwa.com
03069,Orr Toyota,1745 Janet Drive,Searcy,AR,72143,(501) 281-4620,internet@orrtoyotaofsearcy.com,https://www.orrtoyotaofsearcy.com
03075,Red River Toyota,1903 Falls Boulevard,Wynne,AR,72396,(870) 238-7770,,https://www.redrivertoyota.com
02050,Avondale Toyota,10005 West Papago Frwy.,Avondale,AZ,85323,(623) 936-7700,Ecom02050@toyota.com,https://www.avondaletoyota.com
02016,Big Two Toyota of Chandler,1250 S. Gilbert Road,Chandler,AZ,85286,(480) 898-6000,Ecom02016@toyota.com,https://www.bigtwotoyota.com
02052,Findlay Toyota Flagstaff,5030 East Marketplace Dr,Flagstaff,AZ,86004,(928) 779-2445,Ecom02052@toyota.com,https://www.findlaytoyotaflagstaff.net
02053,Berge Toyota,2020 W Riverview Auto Dr,Mesa,AZ,85201,(480) 655-4400,Ecom02053@toyota.com,https://www.bergetoyota.com
02051,Earnhardt Toyota,6136 East Autoloop Avenue,Mesa,AZ,85206,(480) 807-9700,Ecom02051@toyota.com,https://www.earnhardttoyota.com
02058,Larry H. Miller Toyota Peoria,8633 West Bell Road,Peoria,AZ,85382,(623) 876-3400,,https://www.larrymillertoyota.com
02057,Bell Road Toyota,2020 West Bell Road,Phoenix,AZ,85023,(602) 863-0600,,https://www.bellroadtoyota.com
02036,Camelback Toyota,1550 East Camelback Road,Phoenix,AZ,85014,(602) 264-2841,Ecom02036@toyota.com,https://www.camelbacktoyota.com
02055,Findlay Toyota Prescott,3200 Willow Creek Road,Prescott,AZ,86301,(928) 443-8300,leads@toyotaprescott.com,https://www.findlaytoyotaprescott.com
02044,Right Toyota,7701 E Frank Lloyd Wright,Scottsdale,AZ,85260,(480) 778-2200,Ecom02044@toyota.com,https://www.righttoyota.com
02054,Toyota of Surprise,13543 N. Auto Show Avenue,Surprise,AZ,85388,(623) 312-3100,,https://www.toyotaofsurprise.com
02042,AutoNation Toyota Tempe,7970 South Autoplex Loop,Tempe,AZ,85284,(480) 420-3425,Ecom02042@toyota.com,https://www.autonationtoyotatempe.com
02021,Desert Toyota of Tucson,7150 East 22nd Street,Tucson,AZ,85710,(520) 296-8535,Ecom02021@toyota.com,https://www.deserttoyota.com
02010,Precision Toyota of Tucson,700 West Wetmore Road,Tucson,AZ,85705,(520) 795-5565,Ecom02010@toyota.com,https://www.pretoy.com
04660,Toyota of Berkeley Certified Service Center,1025 Eastshore Highway,Albany,CA,94710,(510) 845-7500,Ecom04660@toyota.com,https://www.toyotaofberkeleyservicecenter.com
54042,Wondries Toyota,1439 West Main Street,Alhambra,CA,91801,(626) 289-8000,rrios@wondriestoyota.com,https://www.wondriestoyota.com
04079,Toyota of Anaheim,1331 N. Euclid Street,Anaheim,CA,92801,(714) 879-6300,Ecom04079@toyota.com,https://www.toyotaofanaheim.com
04374,Antioch Toyota,1817 Auto Center Drive,Antioch,CA,94509,(925) 778-4800,Ecom04374@toyota.com,https://www.antiochtoyota.com
04682,Auburn Toyota,800 Nevada Street,Auburn,CA,95603,(530) 885-8484,,https://www.auburntoyota.com
04007,Toyota of Berkeley,2400 Shattuck Avenue,Berkeley,CA,94704,(510) 845-2530,Ecom04007@toyota.com,https://www.toyotaofberkeley.com
04260,Perry Motors Toyota,310 South Main St,Bishop,CA,93514,(760) 872-4141,Ecom04260@toyota.com,https://www.perrymotorstoyota.com
04640,AutoNation Toyota Buena Park,6400 Beach Blvd.,Buena Park,CA,90621,(714) 627-5562,Ecom04640@toyota.com,https://www.autonationtoyotabuenapark.com
04213,Putnam Toyota,50 California Drive,Burlingame,CA,94010,(650) 340-6900,Ecom04213@toyota.com,https://www.putnamtoyota.com
54041,Toyota Carlsbad,5424 Paseo Del Norte,Carlsbad,CA,92008,(760) 438-2000,wecare@toyotacarlsbad.com,https://www.toyotacarlsbad.com
04210,Fletcher Jones Toyota of Carson,1333 E 223rd Street,Carson,CA,90745,(310) 522-2300,,https://www.toyotacarson.com
04636,AutoNation Toyota Cerritos,18700 Studebaker Road,Cerritos,CA,90703,(562) 860-6561,Ecom04636@toyota.com,https://www.autonationtoyotacerritos.com
04353,Toyota Chula Vista,650 Main Street,Chula Vista,CA,91911,(619) 591-0900,mbetancourt@toyotacv.com,https://www.toyotachulavista.com
04115,Puente Hills Toyota,17070 Gale Avenue,City Of Industry,CA,91748,(626) 964-7100,cmann@puentehillstoyota.com,https://www.puentehillstoyota.com
04284,Claremont Toyota,601 Auto Center Drive,Claremont,CA,91711,(909) 625-1500,,https://www.claremonttoyota.com
04176,Concord Toyota,1090 Concord Avenue,Concord,CA,94520,(925) 682-7131,Ecom04176@toyota.com,https://www.concordtoyota.com
54037,Toyota of Corona,1700 West 6th Street,Corona,CA,92882,(951) 734-6020,,https://www.CoronaToyota.com
04137,South Coast Toyota,1966 Harbor Blvd.,Costa Mesa,CA,92627,(949) 722-2000,info@southcoasttoyota.com,https://www.southcoasttoyota.com
04772,Culver City Toyota,9077 Washington Blvd.,Culver City,CA,90232,(310) 559-3777,,https://www.culvercitytoyota.com
04143,City Toyota,255 San Pedro Road,Daly City,CA,94014,(650) 755-5500,Ecom04143@toyota.com,https://www.citytoyota.com
04389,Hanlees Toyota,4202 Chiles Road,Davis,CA,95616,(530) 753-3352,Ecom04389@toyota.com,https://www.hanleesdavistoyota.com
04080,Penske Toyota,9136 E. Firestone Blvd,Downey,CA,90241,(562) 904-5600,Ecom04080@toyota.com,https://www.pensketoyotadowney.com
04362,Dublin Toyota,4321 Toyota Drive,Dublin,CA,94568,(925) 829-7700,Ecom04362@toyota.com,https://www.dublintoyota.com
04456,Toyota of El Cajon,965 Arnele Avenue,El Cajon,CA,92020,(619) 270-3000,Ecom04456@toyota.com,https://www.toyotaofelcajon.com
04136,Longo Toyota,3534 North Peck Road,El Monte,CA,91731,(626) 580-6000,Ecom04136@toyota.com,https://www.longotoyota.com
04201,Elk Grove Toyota,9640 W. Stockton Blvd.,Elk Grove,CA,95757,(916) 405-8000,Ecom04201@toyota.com,https://www.elkgrovetoyota.com
04282,Toyota of Escondido,231 Lincoln Parkway,Escondido,CA,92026,(760) 746-0601,Ecom04282@toyota.com,https://www.toyotaescondido.com
04253,Hanlees Fairfield Toyota,2575 Auto Mall Parkway,Fairfield,CA,94533,(707) 920-2700,,https://www.hanleesfairfieldtoyota.com
04077,Folsom Lake Toyota,12747 Folsom Blvd.,Folsom,CA,95630,(916) 355-1500,Ecom04077@toyota.com,https://www.folsomlaketoyota.com
04338,Fremont Toyota,5851 Cushing Parkway,Fremont,CA,94538,(510) 252-5100,sales@fremonttoyota.edealerhub.com,https://www.fremonttoyota.com
04356,Toyota Place,9670 Trask Avenue,Garden Grove,CA,92844,(877) 289-5612,Ecom04356@toyota.com,https://www.toyotaplace.com
04159,South Bay Toyota,18416 S. Western Avenue,Gardena,CA,90248,(310) 323-7800,,https://www.southbaytoyota.com
04649,Toyota of Glendale,1260 South Brand Blvd.,Glendale,CA,91204,(818) 244-4196,Ecom04649@toyota.com,https://www.toyotaofglendale.com
04109,Toyota of Glendora,1949 Auto Centre Drive,Glendora,CA,91740,(909) 305-2000,Ecom04109@toyota.com,https://www.toyotaofglendora.com
04118,Toyota of Santa Barbara,5611 Hollister Avenue,Goleta,CA,93117,(805) 967-5611,,https://www.toyotaofsantabarbara.com
04256,AutoNation Toyota Hayward,24773 Mission Blvd.,Hayward,CA,94544,(510) 224-4854,Ecom04256@toyota.com,https://www.autonationtoyotahayward.com
04087,Toyota of Huntington Beach,18881 Beach Blvd.,Huntington Beach,CA,92648,(714) 594-7493,Ecom04087@toyota.com,https://www.toyotaofhb.com
04638,AutoNation Toyota Irvine,9101 Research Drive,Irvine,CA,92618,(949) 287-8766,Parts04638@toyota.com,https://www.autonationtoyotairvine.com
04094,Bob Smith Toyota,3333 Foothill Blvd.,La Crescenta,CA,91214,(818) 248-9363,Ecom04094@toyota.com,https://www.bobsmithtoyota.com
04737,Toyota of Lancaster,43301 12th Street West,Lancaster,CA,93534,(661) 948-0731,,https://www.toyotaoflancaster.com
54032,Maverick Toyota,6800 Federal Boulevard,Lemon Grove,CA,91945,(619) 287-2400,,https://www.MaverickToyota.com
04280,Livermore Toyota,6200 Northfront Road,Livermore,CA,94551,(925) 724-2800,,https://www.livermoretoyota.com
04120,Lodi Toyota,1020 S. Beckman Road,Lodi,CA,95240,(209) 642-4022,,https://www.loditoyota.com
04734,Toyota of Lompoc,203 East Ocean Avenue,Lompoc,CA,93436,(805) 736-1295,,https://www.toyotaoflompoc.com
04033,Cabe Toyota Long Beach,2849 Long Beach Blvd.,Long Beach,CA,90806,(562) 595-7411,Ecom04033@toyota.com,https://www.cabetoyota.com
04726,West Coast Toyota of Long Beach,3399 E. Willow Street,Long Beach,CA,90806,(562) 494-4444,,https://www.westcoasttoyotalb.com
04739,Toyota of Downtown LA,1901 S. Figueroa Street,Los Angeles,CA,90007,(213) 986-2011,,https://www.toyotaofdowntownla.com
04102,Toyota of Hollywood,6920 Sunset Blvd.,Los Angeles,CA,90028,(323) 817-0282,Ecom04102@toyota.com,https://www.hollywoodtoyota.com
04508,Manhattan Beach Toyota,1500 N. Sepulveda Blvd,Manhattan Beach,CA,90266,(310) 546-4848,Ecom04508@toyota.com,https://www.manhattanbeachtoyota.com
04315,Marina del Rey Toyota,4636 Lincoln Boulevard,Marina Del Rey,CA,90292,(866) 823-8348,Ecom04315@toyota.com,https://www.marinadelreytoyota.com
04067,Envision Toyota of Milpitas,950 Thompson Street,Milpitas,CA,95035,(408) 479-9610,,https://www.toyotamilpitas.com
04013,Hamer Toyota,11041 Sepulveda Blvd,Mission Hills,CA,91345,(818) 365-9621,Ecom04013@toyota.com,https://www.hamertoyota.com
04359,Moss Bros. Toyota,12630 Motor Way,Moreno Valley,CA,92555,(951) 247-8000,Ecom04359@toyota.com,https://www.mossbrostoyotamorenovalley.com
04017,Jimmy Vasser Toyota,466 Soscol Avenue,Napa,CA,94559,(707) 927-4466,Ecom04017@toyota.com,https://www.jimmyvassertoyota.com
04844,Dalton Toyota National City,2400 National City Blvd,National City,CA,91950,(619) 474-5573,Marketing@frankmotors.com,https://www.toyotadalton.com
04154,Toyota of North Hollywood,4606 Lankershim Boulevard,North Hollywood,CA,91602,(818) 508-2900,Ecom04154@toyota.com,https://www.northhollywoodtoyota.com
04244,Northridge Toyota,19550 Nordhoff Street,Northridge,CA,91324,(818) 734-5600,,https://www.northridgetoyota.com
04285,Envision Toyota of Norwalk,11404 E Imperial Highway,Norwalk,CA,90650,(562) 574-1020,rmalaeb@norwalktoyota.com,https://www.norwalktoyota.com
04073,Novato Toyota,115 Vintage Way,Novato,CA,94945,(415) 897-3191,DOUG@NOVATOTOYOTA.COM,https://www.novatotoyota.com
04317,Downtown Toyota of Oakland,4145 Broadway Street,Oakland,CA,94611,(510) 547-4436,Ecom04317@toyota.com,https://www.downtowntoyota.com
04688,One Toyota of Oakland,8181 Oakport Street,Oakland,CA,94621,(510) 569-1111,Ecom04688@toyota.com,https://www.onetoyota.com
04101,Crown Toyota,1201 Kettering Drive,Ontario,CA,91761,(909) 390-9700,,https://www.crowntoyota.com
04247,Toyota of Orange,1400 N Tustin,Orange,CA,92867,(714) 639-6750,info@toyotaoforange.com,https://www.toyotaoforange.com
04990,DCH Toyota of Oxnard,1631 Auto Center Drive,Oxnard,CA,93030,(805) 988-7900,,https://www.toyotaofoxnard.com
04454,Magnussen's Toyota of Palo Alto,690 San Antonio Road,Palo Alto,CA,94306,(650) 494-2100,Ecom04454@toyota.com,https://www.toyotapaloalto.com
04283,Toyota of Pasadena,3600 E. Foothill Blvd.,Pasadena,CA,91107,(626) 795-9787,Ecom04283@toyota.com,https://www.toyotapasadena.com
04072,Hansel Toyota,1125 Auto Center Drive,Petaluma,CA,94952,(707) 769-2333,Ecom04072@toyota.com,https://www.hanseltoyota.com
04185,Thompson's Toyota of Placerville,140 Forni Road,Placerville,CA,95667,(530) 622-6232,Ecom04185@toyota.com,https://www.thompsonstoyota.com
04095,Toyota of Poway,13631 Poway Road,Poway,CA,92064,(858) 486-2900,Ecom04095@toyota.com,https://www.toyotaofpoway.com
04713,Santa Margarita Toyota,22722 Avenida Empresa,Rancho Santa Margarita,CA,92688,(949) 766-2000,,https://www.santamargaritatoyota.com
04163,Lithia Toyota of Redding,250 E. Cypress Avenue,Redding,CA,96002,(530) 223-2600,Ecom04163@toyota.com,https://www.lithiatoyotaredding.com
04333,Toyota of Redlands,921 New York Street,Redlands,CA,92373,(909) 793-0300,Ecom04333@toyota.com,https://www.toyotaofredlands.com
54002,Swickard Toyota 101,386 Convention Way,Redwood City,CA,94063,(650) 365-5000,,https://www.swickardtoyota101.com
04022,Hanlees Hilltop Toyota,3233 Auto Plaza,Richmond,CA,94806,(510) 243-2020,Ecom04022@toyota.com,https://www.hanleesrichmondtoyota.com
04388,Toyota of Riverside,7870 Indiana Avenue,Riverside,CA,92504,(951) 687-1622,Ecom04388@toyota.com,https://www.toyotaofriverside.com
04237,Roseville Toyota,700 Automall Drive,Roseville,CA,95661,(916) 527-6300,,https://www.rosevilletoyota.com
04364,Maita's Toyota of Sacramento,2500 Auburn Blvd.,Sacramento,CA,95821,(916) 481-0855,Ecom04364@toyota.com,https://www.maitatoyota.com
04061,Toyota of San Bernardino,650 Auto Center Drive,San Bernardino,CA,92408,(909) 381-4444,Ecom04061@toyota.com,https://www.toyotasb.com
04119,Victory Toyota of San Bruno,222 E. San Bruno Avenue,San Bruno,CA,94066,(650) 635-1000,isaaq@victorytoyota.com,https://www.victorytoyotasanbruno.com
04576,Kearny Mesa Toyota,4910 Kearny Mesa Road,San Diego,CA,92111,(858) 430-2600,Ecom04576@toyota.com,https://www.kearnymesatoyota.com
04278,Mossy Toyota,4555 Mission Bay Drive,San Diego,CA,92109,(858) 581-4000,Ecom04278@toyota.com,https://www.mossytoyota.com
04536,Norm Reeves Toyota San Diego,5910 Mission Gorge Road,San Diego,CA,92120,(619) 280-4100,tsd-dealerprincipal@normreeves.com,https://www.normreevestoyotasandiego.com
04088,San Francisco Toyota,3800 Geary Blvd,San Francisco,CA,94118,(415) 750-8300,Ecom04088@toyota.com,https://www.sftoyota.com
04426,Capitol Toyota,775 Capitol Exprsway Auto Mall,San Jose,CA,95136,(408) 267-0500,Ecom04426@toyota.com,https://www.capitoltoyota.com
04226,Stevens Creek Toyota,4202 Stevens Creek Blvd.,San Jose,CA,95129,(408) 984-1234,Ecom04226@toyota.com,https://www.stevenscreektoyota.com
04279,Capistrano Valley Toyota,33395 Camino Capistrano,San Juan Capistrano,CA,92675,(949) 493-4100,,https://www.capovalleytoyota.com
04232,Toyota San Luis Obispo,12350 Los Osos Valley Rd.,San Luis Obispo,CA,93405,(805) 543-7001,,https://www.toyota-slo.com
04563,Toyota Marin,445 Francisco Boulevard East,San Rafael,CA,94901,(415) 524-7770,Ecom04563@toyota.com,https://www.toyotamarin.com
04290,Toyota of Santa Maria,1643 S. Bradley Road,Santa Maria,CA,93454,(805) 928-3881,Ecom04290@toyota.com,https://www.toyotasm.com
04303,Toyota Santa Monica,1230 Santa Monica Blvd.,Santa Monica,CA,90404,(424) 567-7599,Ecom04303@toyota.com,https://www.toyotasantamonica.com
04070,Freeman Toyota,2875 Corby Avenue,Santa Rosa,CA,95407,(707) 542-1791,Ecom04070@toyota.com,https://www.freeman-toyota.com
04180,Toyota Certified Center Santee,8871 Fanita Drive,Santee,CA,92071,(619) 596-7700,Ecom04180@toyota.com,https://www.toyotacertifiedcenterofsantee.com
04228,Simi Valley Toyota,2380 First Street,Simi Valley,CA,93065,(805) 526-7500,,https://www.simivalleytoyota.com
04151,Jim Bagan Toyota,1855 Lake Tahoe Boulevard,South Lake Tahoe,CA,96150,(530) 541-2060,sales@jimbagan.com,https://www.jimbagantoyota.com
04324,Toyota Town,2150 East Hammer Lane,Stockton,CA,95210,(209) 473-2513,info@toyotaofstockton.com,https://www.toyotaofstockton.com
04104,Toyota Sunnyvale,898 W. El Camino Real,Sunnyvale,CA,94087,(408) 245-6640,Ecom04104@toyota.com,https://www.toyotasunnyvale.com
04167,Thousand Oaks Toyota,2401 E. Thousand Oaks Blvd.,Thousand Oaks,CA,91362,(818) 889-8919,Ecom04167@toyota.com,https://www.totoyota.com
04748,DCH Toyota of Torrance,2909 Pacific Coast Hwy,Torrance,CA,90505,(310) 325-7500,,https://www.torrancetoyota.com
04169,Tracy Toyota,2895 North Naglee Road,Tracy,CA,95304,(209) 834-1111,Ecom04169@toyota.com,https://www.tracytoyota.com
04543,Tustin Toyota,36 Auto Center Drive,Tustin,CA,92782,(714) 832-3111,Ecom04543@toyota.com,https://www.tustintoyota.com
04487,Ammaar's Toyota Vacaville,500 Orange Drive,Vacaville,CA,95687,(707) 446-7000,Ecom04487@toyota.com,https://www.toyotavacaville.com
04662,Frontier Toyota,23621 Creekside Road,Valencia,CA,91355,(661) 255-7575,frontiertoyota@eleadtrack.net,https://www.frontiertoyota.com
04292,Toyota of Vallejo,201 Auto Mall Parkway,Vallejo,CA,94591,(707) 552-4545,dave@toyotavallejo.com,https://www.toyotavallejo.com
04297,Keyes Toyota,5855 Van Nuys Blvd,Van Nuys,CA,91401,(818) 305-6926,,https://www.keyestoyota.com
04344,Ventura Toyota,6360 Auto Center Drive,Ventura,CA,93003,(805) 650-0510,Ecom04344@toyota.com,https://www.venturatoyota.com
04051,Toyota Walnut Creek,2100 North Broadway,Walnut Creek,CA,94596,(925) 933-7440,,https://www.toyotawc.com
04211,Envision Toyota of West Covina,205 N. Citrus Street,West Covina,CA,91791,(626) 640-7450,,https://www.toyotawestcovina.com
04108,Beach Cities Toyota Westminster,15300 Beach Boulevard,Westminster,CA,92683,(714) 894-3322,Ecom04108@toyota.com,https://www.beachcitiestoyotawestminster.com
04197,Toyota of Whittier,14577 East Whittier Blvd.,Whittier,CA,90605,(562) 698-2591,,https://www.toyotaofwhittier.com
04265,Future Toyota of Yuba City,955 Harter Parkway,Yuba City,CA,95993,(530) 673-5661,,https://www.futuretoyotayubacity.com
05073,Stevinson Toyota East,444 South Havana Street,Aurora,CO,80012,(303) 340-2170,,https://www.stevinsontoyotaeast.com
05075,Corwin Toyota Boulder,2465 48th Court,Boulder,CO,80301,(303) 443-3250,,https://www.corwintoyotaboulder.com
05063,AutoNation Toyota Arapahoe,10531 East Arapahoe Road,Centennial,CO,80112,(303) 578-6111,Ecom05063@toyota.com,https://www.autonationtoyotaarapahoe.com
05076,Corwin Toyota Colorado Springs,5115 New Car Drive,Colorado Springs,CO,80923,(719) 598-2222,,https://www.corwintoyotacoloradosprings.com
05077,Toyota of Colorado Springs,15 East Motor Way,Colorado Springs,CO,80905,(719) 471-3100,,https://www.toyotaofcoloradosprings.com
05079,Vista Toyota Delta,750 E. Highway 92,Delta,CO,81416,(970) 874-4444,,https://www.vistatoyotaco.com
05067,Mountain States Toyota,201 West 70th Avenue,Denver,CO,80221,(303) 302-8888,Ecom05067@toyota.com,https://www.mountainstatestoyota.com
05070,Durango Toyota,1200 Carbon Junction,Durango,CO,81301,(970) 385-4822,Ecom05070@toyota.com,https://www.durangotoyota.com
05078,Groove Toyota,5460 South Broadway,Englewood,CO,80113,(303) 761-3222,,https://www.groovetoyota.com
05072,McDonald Toyota of Fort Morgan,1209 Main Street,Fort Morgan,CO,80701,(970) 867-1400,,https://www.mcdonaldtoyotafortmorgan.com
05043,"Stapp Interstate Toyota, Inc.",8019 Raspberry Way,Frederick,CO,80504,(303) 776-1743,Ecom05043@toyota.com,https://www.interstatetoyota.com
05030,"Pedersen Toyota, Ltd.",4455 South College Avenue,Ft Collins,CO,80525,(970) 223-3100,Ecom05030@toyota.com,https://www.pedersentoyota.com
05046,Bighorn Toyota,130 Center Drive,Glenwood Springs,CO,81601,(970) 945-6544,Ecom05046@toyota.com,https://www.bighorntoyota.com
05055,Western Slope Toyota,2264 Highway 6 and 50,Grand Junction,CO,81505,(970) 243-0843,Ecom05055@toyota.com,https://www.westernslopetoyota.com
05071,McDonald Toyota,4732 West 26th Street,Greeley,CO,80634,(970) 339-3900,,https://www.mcdonaldtoyotagreeley.com
05074,Stevinson Toyota West,780 Denver W Colorado Mills Bl,Lakewood,CO,80401,(303) 277-0550,,https://www.stevinsontoyotawest.com
05049,"Turner Toyota, Inc.",2262 East Main Street,Montrose,CO,81401,(970) 249-6691,Ecom05049@toyota.com,https://www.turnertoyota.com
05051,Pueblo Toyota,2220 US Highway 50 West,Pueblo,CO,81008,(719) 543-1719,Ecom05051@toyota.com,https://www.pueblotoyota.com
06022,Stephen Toyota,1069 Farmington Ave,Bristol,CT,06010,(860) 584-7333,Ecom06022@toyota.com,https://www.stephentoyota.com
06049,Toyota of Colchester,100 Old Hartford Road,Colchester,CT,06415,(860) 537-2468,Ecom06049@toyota.com,https://www.toyotaofcolchester.com
06029,Toyota of Greenwich,"75 E. Putnam Ave, Box 402",Cos Cob,CT,06807,(203) 661-5055,Ecom06029@toyota.com,https://www.toyotaofgreenwich.com
06032,Greentree Toyota,87 Federal Road,Danbury,CT,06810,(203) 730-4040,Ecom06032@toyota.com,https://www.greentreetoyota.com
06026,Gale Toyota,50 Palomba Drive,Enfield,CT,06082,(860) 741-3761,michael.green@galetoyota.com,https://www.galetoyota.com
06050,Hartford Toyota,135 West Service Road,Hartford,CT,06120,(860) 278-5411,Ecom06050@toyota.com,https://www.hartfordtoyota.com
06046,Dowling Toyota of Litchfield,451 Bantam Road,Litchfield,CT,06759,(860) 567-0815,Ecom06046@toyota.com,https://www.dowlingtoyota.com
06025,Lynch Toyota,179 Tolland Turnpike,Manchester,CT,06040,(860) 646-4321,Ecom06025@toyota.com,https://www.lynchtoyota.com
06036,Middletown Toyota,634 Newfield Street,Middletown,CT,06457,(860) 347-7294,sales@toyota.com,https://www.middletowntoyota.com
06040,Colonial Toyota,470 Boston Post Road,Milford,CT,06460,(203) 878-7401,,https://www.colonialtoyotact.com
06002,A-1 Toyota,50 Amity Road,New Haven,CT,06515,(203) 389-1521,Ecom06002@toyota.com,https://www.a1toyota.com
06015,Girard Toyota-BMW,543 Colman Street,New London,CT,06320,(860) 447-3141,Ecom06015@toyota.com,https://www.girardtoyota.com
06037,Charles Toyota,500 West Thames Street,Norwich,CT,06360,(860) 889-8375,Ecom06037@toyota.com,https://www.charlestoyota.com
06055,McGee Toyota of Putnam,88 Providence Pike,Putnam,CT,06260,(860) 923-4041,,https://www.mcgeetoyotaofputnam.com
06052,Toyota of Stamford,909 East Main Street,Stamford,CT,06902,(203) 348-3751,,https://www.toyotaofstamford.com
06045,Torrington Toyota,1472 East Main Street,Torrington,CT,06790,(860) 482-9496,Ecom06045@toyota.com,https://www.torringtontoyota.com
06047,Toyota of Wallingford,859-861 No. Colony Road,Wallingford,CT,06492,(203) 284-7400,Ecom06047@toyota.com,https://www.wow-toyota.com
06054,Crabtree Toyota,832 Straits Turnpike,Watertown,CT,06795,(203) 283-3083,,https://www.crabtreetoyota.com
06042,Hoffman Toyota,"36 Albany Turnpike, Rt 44",West Simsbury,CT,06092,(860) 651-3725,Ecom06042@toyota.com,https://www.hoffmantoyota.com
06043,Westbrook Toyota,80 Flat Rock Place,Westbrook,CT,06498,(860) 388-6991,Ecom06043@toyota.com,https://www.westbrooktoyota.com
06056,Keeler Toyota of Westport,777 Post Road East,Westport,CT,06880,(203) 222-3300,,https://www.toyotaofwestport.com
07013,IG Burton Toyota of Dover,1536 N. DuPont Highway,Dover,DE,19901,(302) 734-5748,,https://www.igburtontoyota.com
07012,Hertrich Toyota,1367 Bay Road,Milford,DE,19963,(302) 422-2586,Ecom07012@toyota.com,https://www.hertrichtoyota.com
07008,Price Toyota,168 N. Dupont Highway,New Castle,DE,19720,(302) 322-8600,Ecom07008@toyota.com,https://www.pricetoyota.com
07009,Newark Toyotaworld,230 E. Cleveland Avenue,Newark,DE,19711,(302) 368-6262,Ecom07009@toyota.com,https://www.newarktoyotaworld.com
09168,Gettel Toyota of Bradenton,6323 14th Street West,Bradenton,FL,34207,(941) 756-5511,dealer.mail@setoyota.com,https://www.getteltoyotaofbradenton.com
09230,Gettel Toyota of Lakewood,5959 East State Road 64,Bradenton,FL,34208,(941) 567-1080,,https://www.getteltoyotaoflakewood.com
09198,Clearwater Toyota,21799 U.S. Highway 19 North,Clearwater,FL,33765,(727) 799-1234,Mo.Alam@clearwatertoyota.com,https://www.clearwatertoyota.com
09232,Toyota of Clermont,16851 Highway 50,Clermont,FL,34711,(352) 404-7000,,https://www.toyotaofclermont.com
09202,Mike Erdman Toyota,4650 Highway 520,Cocoa,FL,32926,(321) 453-1313,sales@mikeerdmantoyota.com,https://www.mikeerdmantoyota.com
09246,Toyota of Coconut Creek,5201 West Sample Road,Coconut Creek,FL,33073,(954) 972-1100,,https://www.toyotaofcoconutcreek.com
09206,AutoNation Toyota Weston,4050 Weston Road,Davie,FL,33331,(954) 659-1800,rosenbaumh@autonation.com,https://www.autonationtoyotaweston.com
09190,Daytona Toyota,451 North Nova Road,Daytona Beach,FL,32114,(386) 255-7475,sales@daytonatoyota.com,https://www.daytonatoyota.com
09227,Toyota of Deerfield Beach,1441 S. Federal Hwy.,Deerfield Beach,FL,33441,(954) 719-7300,rholroyd@vtaig.com,https://www.toyotaofdeerfieldbeach.com
09178,Parks Toyota of Deland,1701 S. Woodland Blvd,Deland,FL,32720,(386) 734-2184,sales@delandtoyota.com,https://www.parkstoyotaofdeland.com
09156,Ed Morse Delray Toyota,2800 South Federal Highway,Delray Beach,FL,33483,(561) 276-5000,delraytoyota@edmorse.com,https://www.delraytoyota.com
09043,Doral Toyota,9775 North West 12th Str,Doral,FL,33172,(305) 261-2181,text@expresswaytoyota.com,https://www.doraltoyota.com
09233,Toyota of Fort Walton Beach,777 Beal Parkway N,Ft Walton Beach,FL,32547,(850) 863-2161,,https://www.toyotafwb.com
09158,Lipton Toyota,1700 W. Oakland Park Blvd,Ft. Lauderdale,FL,33311,(954) 735-1330,sales@liptontoyota.com,https://www.liptontoyota.com
09229,AutoNation Toyota Fort Myers,2555 Colonial Blvd.,Ft. Myers,FL,33907,(239) 321-5413,NSHEIWATJ@autonation.com,https://www.autonationtoyotafortmyers.com
09182,Gettel Toyota Gainesville,2985 North Main Street,Gainesville,FL,32609,(352) 376-3262,dealer.mail@setoyota.com,https://getteltoyotagainesville.com
09215,Miracle Toyota,37048 Highway 27,Haines City,FL,33844,(863) 956-1123,text@toyotaofwinterhaven.com,https://www.miracletoyota.com
09163,Headquarter Toyota,5895 N.W. 167th Street,Hialeah,FL,33015,(305) 364-9800,cindy.rosado@headquartertoyota.com,https://www.headquartertoyota.com
09236,Sun Toyota of New Port Richey,3001 U.S. Highway 19,Holiday,FL,34691,(727) 842-9735,,https://www.suntoyota.com
09107,Toyota of Hollywood,1841 North State Road 7,Hollywood,FL,33021,(844) 821-8998,sales@toyotaofhollywood.com,https://www.toyotaofhollywood.com
09226,South Dade Toyota,29330 S. Dixie Highway,Homestead,FL,33033,(305) 248-6330,text@southdadetoyota.com,https://www.southdadetoyota.com
09126,Village Toyota,2431 Suncoast Blvd.,Homosassa,FL,34448,(352) 628-5100,sales@villagetoyota.com,https://www.villagetoyota.com
09096,Arlington Toyota,10939 Atlantic Blvd.,Jacksonville,FL,32225,(904) 721-3000,sales@arlingtontoyota.com,https://www.arlingtontoyota.com
09244,Butler Toyota Jacksonville,1290 Cassat Avenue,Jacksonville,FL,32205,(904) 389-4561,,https://www.butlertoyotajacksonville.com
09208,Coggin Toyota at the Avenues,11340 Phillips Highway,Jacksonville,FL,32256,(904) 262-0338,sales@coggintoyota.com,https://www.coggintoyota.com
09205,Keith Pierson Toyota,6501 Youngerman Circle,Jacksonville,FL,32244,(904) 771-9100,sales@keithpiersontoyota.com,https://www.keithpiersontoyota.com
09247,Lake City Toyota,1232 West US Highway 90,Lake City,FL,32055,(386) 755-0631,,https://www.lctoyota.com
09076,Earl Stewart Toyota of North Palm Beach,1215 N. Federal Highway,Lake Park,FL,33403,(561) 844-3461,text@stewarttoyotaleads.com,https://www.earlstewarttoyota.com
09079,Lakeland Toyota,2925 Mall Hill Drive,Lakeland,FL,33810,(863) 688-5451,sales@lakelandtoyota.com,https://www.lakelandtoyota.com
09194,Phillips Toyota,8629 U.S. Highway 441,Leesburg,FL,34788,(352) 728-2030,text@phillipstoyota.com,https://www.phillipstoyota.com
09108,Marianna Toyota,2961 Pennsylvania Avenue,Marianna,FL,32448,(850) 526-3511,sales@mariannatoyota.com,https://www.mariannatoyota.com
09204,Kendall Toyota,10943 S. Dixie Highway,Miami,FL,33156,(305) 665-6581,jenniferg@contactdealer.com,https://www.kendalltoyota.com
09214,Toyota of North Miami,16600 NW 2nd Avenue,Miami,FL,33169,(305) 652-6500,,https://www.toyotaofnorthmiami.com
09216,West Kendall Toyota,13800 SW 137th Avenue,Miami,FL,33186,(786) 345-2600,text@westkendalltoyota.com,https://www.westkendalltoyota.com
09112,Germain Toyota of Naples,13315 Tamiami Trail North,Naples,FL,34110,(239) 592-5550,bkramer@germainfl.com,https://www.germaintoyotaofnaples.com
09250,Gettel Toyota Ocala,"1719 S.W. College Rd,Hwy 200 W",Ocala,FL,34471,(352) 732-0770,,https://www.getteltoyotaocala.com
09199,Central Florida Toyota,11020 S Orange Blossom Tr,Orlando,FL,32837,(407) 472-5200,text@centralfloridatoyota.com,https://www.centralfloridatoyota.com
09183,Toyota of Orlando,3575 Vineland Road,Orlando,FL,32811,(407) 298-4500,sales@toyotaoforlando.com,https://www.toyotaoforlando.com
09174,Panama City Toyota,959 West 15th Street,Panama City,FL,32401,(850) 769-3377,text@panamacitytoyota.com,https://www.panamacitytoyota.com
09189,Bob Tyler Toyota,7201 N. Pensacola Blvd.,Pensacola,FL,32505,(850) 478-9999,dealer.mail@setoyota.com,https://www.bobtylertoyota.com
09196,AutoNation Toyota Pinellas Park,8501 U.S. Hwy 19 North,Pinellas Park,FL,33781,(727) 231-1423,amranic@autonation.com,https://www.autonationtoyotapinellaspark.com
09239,Gettel Toyota of Charlotte County,1801 Tamiami Trail,Punta Gorda,FL,33950,(941) 639-1155,,https://www.getteltoyotaofcharlottecounty.com
09241,Southern 441 Toyota,9205 Southern Blvd,Royal Palm Beach,FL,33411,(561) 491-4400,,https://www.southern441toyota.com
09209,Seminole Toyota,1160 Rinehart Road,Sanford,FL,32771,(321) 559-8028,salesdavidmaustoyota@setdlr.com,https://www.seminoletoyota.com
09243,Sarasota Toyota,7435 South Tamiami Trail,Sarasota,FL,34231,(941) 924-7700,,https://www.sarasotatoyota.com
09231,Beaver Toyota of St. Augustine,900 Marketplace Dr.,St. Augustine,FL,32084,(904) 797-8800,,https://www.beavertoyotastaugustine.com
09228,Treasure Coast Toyota of Stuart,5101 S.E. Federal Highway,Stuart,FL,34997,(772) 283-8300,text@treasurecoasttoyota.com,https://www.treasurecoasttoyotaofstuart.com
09212,Peter Boulware Toyota,3800 West Tennessee Street,Tallahassee,FL,32304,(850) 575-0168,partsdept@peterboulwaretoyota.com,https://www.peterboulwaretoyota.com
09200,Courtesy Toyota,9210 Adamo Drive,Tampa,FL,33619,(813) 621-7747,dealer.mail@setoyota.com,https://www.courtesytoyota.com
09248,Gettel Stadium Toyota,5088 North Dale Mabry Highway,Tampa,FL,33614,(813) 872-4881,leads@drivestadiumtoyota.com,https://www.stadiumtoyota.com
09217,Toyota of Tampa Bay,1101 East Fletcher Avenue,Tampa,FL,33612,(813) 933-6402,sales@toyotaoftampabay.com,https://www.toyotaoftampabay.com
09234,Venice Toyota,"900 U.S. 41 By-Pass, South",Venice,FL,34285,(941) 484-9000,,https://www.venicetoyota.com
09242,Wesley Chapel Toyota,5300 Eagleston Blvd,Wesley Chapel,FL,33544,(813) 973-8888,,https://www.wesleychapeltoyota.com
09193,Palm Beach Toyota,200 S. Congress Avenue,West Palm Beach,FL,33406,(561) 712-2700,dealer.mail@setoyota.com,https://www.palmbeachtoyota.com
09210,AutoNation Toyota Winter Park,225 North Semoran Blvd.,Winter Park,FL,32792,(407) 680-0783,sherrenm1@autonation.com,https://www.autonationtoyotawinterpark.com
10133,Hutchinson Toyota of Albany,2865 Ledo Road,Albany,GA,31707,(229) 436-7751,,https://www.hutchinsontoyota.com
10087,Heyward Allen Toyota,2910 Atlanta Highway,Athens,GA,30606,(706) 549-7002,text@heywardallentoyota.com,https://www.heywardallentoyota.com
10129,Rick Hendrick Toyota Sandy Springs,6475 Roswell Road NE,Atlanta,GA,30328,(404) 256-3392,,https://www.rickhendricktoyotasandysprings.com
10106,World Toyota,5800 Peachtree Industrial Blvd,Atlanta,GA,30341,(678) 547-9000,sales@worldtoyota.net,https://www.worldtoyota.com
10121,Milton Ruben Toyota of Augusta,3514 Washington Road,Augusta,GA,30907,(706) 868-5454,text@miltonrubentoyota.com,https://www.miltonrubentoyota.com
10124,AutoNation Toyota Mall of Georgia,3505 Buford Drive,Buford,GA,30519,(770) 674-6083,alfordj@autonation.com,https://www.autonationtoyotamallofgeorgia.com
10108,Cherokee County Toyota,301 Liberty Blvd.,Canton,GA,30114,(770) 704-9525,sales@cherokeecountytoyota.com,https://www.cherokeecountytoyota.com
10127,Group 1 Toyota Rivertown,1661 Whittlesey Road,Columbus,GA,31904,(706) 322-8891,,https://www.group1toyotarivertown.com
10130,Beaver Toyota of Cumming,1875 Buford Highway,Cumming,GA,30041,(470) 533-2000,ClientCare@beavertoyota.com,https://www.beavertoyotacumming.com
10035,North Georgia Toyota,1510 East Walnut Avenue,Dalton,GA,30721,(706) 278-1322,sales@northgeorgiatoyota.com,https://www.northgeorgiatoyota.com
10094,Atlanta Toyota,2345 Pleasant Hill Road,Duluth,GA,30096,(770) 476-8282,sales@atlantatoyota.com,https://www.atlantatoyota.com
10015,Milton Martin Toyota,3150 Milton Martin Toyota Way,Gainesville,GA,30507,(770) 532-4355,leads@drivemiltonmartin.com,https://www.miltonmartintoyota.com
10090,Cobb County Toyota,2111 Barrett Lakes Blvd.,Kennesaw,GA,30144,(770) 422-8555,sales@cobbcountytoyota.com,https://www.cobbcountytoyota.com
10041,LaGrange Toyota,1221 Lafayette Parkway,LaGrange,GA,30241,(706) 882-2963,text@lagrangetoyota.com,https://www.lagrangetoyota.com
10131,Stone Mountain Toyota,4220 Stone Mountain Highway,Lilburn,GA,30047,(770) 736-0030,,https://www.stonemountaintoyota.com
10104,AutoNation Toyota Thornton Road,1000 Blairs Bridge Road,Lithia Springs,GA,30122,(770) 674-6082,sales@teamtoyota.com,https://www.autonationtoyotathorntonroad.com
10126,Nalley Toyota Stonecrest,7969 Mall Parkway,Lithonia,GA,30038,(678) 708-4800,,https://www.stonecresttoyota.com
10032,Marietta Toyota,750 Cobb Parkway South,Marietta,GA,30060,(770) 422-1490,management@mariettatoyota.com,https://www.mariettatoyota.com
10134,Jim Ellis Toyota of McDonough,144 Highway 81 West,McDonough,GA,30253,(770) 288-3755,,https://www.jimellistoyota.com
10136,Toyota South Atlanta,6865 Jonesboro Road,Morrow,GA,30260,(770) 961-0225,,https://www.toyotasouthatlanta.com
10135,Toyota of Newnan,2 Herring Road,Newnan,GA,30265,(770) 502-1333,,https://www.toyotaofnewnan.com
10118,Nalley Toyota of Roswell,11130 Alpharetta Highway,Roswell,GA,30076,(770) 594-8696,sales@toyotaofroswell.com,https://www.toyotaofroswell.com
10098,Chatham Parkway Toyota,7 Park of Commerce Way,Savannah,GA,31405,(912) 231-2020,text@chathamparkwaytoyota.com,https://www.chathamparkwaytoyota.com
10078,Savannah Toyota,11101 Abercorn Extension,Savannah,GA,31419,(912) 927-1234,sales@savannahtoyota.com,https://www.savannahtoyota.com
10039,Franklin Toyota,500 Commerce Drive,Statesboro,GA,30458,(912) 764-9424,sales@franklintoyota.com,https://www.franklintoyota.com
10107,Thomasville Toyota,14724 U.S. Hwy. 19 South,Thomasville,GA,31757,(229) 228-0555,text@thomasvilletoyota.com,https://www.thomasvilletoyota.com
10040,Prince Toyota,"2013 U.S. Highway 82, West",Tifton,GA,31793,(229) 386-4000,sales@princeauto.com,https://www.princetoyota.com
10132,Nalley Toyota Union City,4115 Jonesboro Road,Union City,GA,30291,(770) 964-8888,,https://www.toyotaofunioncity.com
10117,Valdosta Toyota,2980 James Circle,Valdosta,GA,31601,(229) 247-1920,info@valdostatoyota.com,https://www.valdostatoyota.com
14046,Wilson Toyota,2212 South Duff,Ames,IA,50010,(515) 232-4081,Ecom14046@toyota.com,https://www.wilsonofamestoyota.com
14053,Motor Inn Toyota of Carroll,1526 Le Clark Road,Carroll,IA,51401,(712) 792-4352,Ecom14053@toyota.com,https://www.motorinntoyotaofcarroll.com
14041,Dan Deery Toyota,7404 University Avenue,Cedar Falls,IA,50613,(319) 277-4500,Ecom14041@toyota.com,https://www.dandeerytoyota.com
14054,Billion Toyota of Clinton,2435 Lincolnway,Clinton,IA,52732,(563) 243-7000,,https://www.clintontoyota.com
14052,Smart Toyota of Quad Cities,1501 E. 53rd Street,Davenport,IA,52807,(563) 391-4106,Ecom14052@toyota.com,https://www.smarttoyotaqc.com
14011,Anderson-Weber Toyota,3450 Center Grove Drive,Dubuque,IA,52003,(563) 556-3281,Ecom14011@toyota.com,https://www.andersonwebertoyota.com
14048,"Fort Dodge Ford, Lincoln, Toyota",2723 5th Avenue South,Fort Dodge,IA,50501,(515) 576-7505,Ecom14048@toyota.com,https://www.fortdodgetoyota.com
14044,Toyota of Des Moines,1650 SE 37th Street,Grimes,IA,50111,(515) 276-4911,Ecom14044@toyota.com,https://www.toyotadm.com
14015,"Cedar Rapids Toyota, Inc.",1190 Boyson Road,Hiawatha,IA,52233,(319) 378-4400,Ecom14015@toyota.com,https://www.cedarrapidstoyota.com
14055,McGrath Toyota of Iowa City,1445 Highway 1 West,Iowa City,IA,52246,(319) 351-1501,,https://www.toyotaiowacity.com
14017,Hosmer Toyota,3851 Fourth Street SW,Mason City,IA,50401,(641) 424-5182,Ecom14017@toyota.com,https://www.hosmertoyota.com
14050,Toyota of Muscatine,3000 Highway 38 North,Muscatine,IA,52761,(563) 263-8028,Ecom14050@toyota.com,https://www.toyotaofmuscatine.com
14056,Gregg Young Toyota Ottumwa,2839 North Court Street,Ottumwa,IA,52501,(641) 682-3422,,https://www.greggyoungtoyota.com
14051,Rick Collins Toyota,3131 Singing Hills Blvd.,Sioux City,IA,51106,(712) 277-4271,Ecom14051@toyota.com,https://www.rickcollinstoyota.com
14049,Okoboji Toyota,2720 17th Street,Spirit Lake,IA,51360,(712) 336-1500,Ecom14049@toyota.com,https://www.okobojitoyota.com
14036,Deery Brothers Toyota,200 South Gear Avenue,West Burlington,IA,52655,(319) 752-6000,Ecom14036@toyota.com,https://www.deerybrotherstoyota.com
11001,Peterson Toyota,9101 West Fairview Avenue,Boise,ID,83704,(208) 378-9000,Ecom11001@toyota.com,https://www.petersontoyota.net
11030,Parker Toyota,470 West Kathleen Avenue,Coeur d'Alene,ID,83815,(208) 765-8228,Ecom11030@toyota.com,https://www.parkertoyota.com
11035,Teton Toyota,2252 West Sunnyside Road,Idaho Falls,ID,83402,(208) 522-2911,Ecom11035@toyota.com,https://www.tetontoyota.com
11028,Rogers Toyota,2203 16th Avenue,Lewiston,ID,83501,(208) 743-5577,Ecom11028@toyota.com,https://www.toyotaoflewiston.com
11036,Edmark Toyota,15933 Idaho Center Blvd,Nampa,ID,83687,(208) 468-8000,,https://www.edmarktoyota.com
11022,Phil Meador Toyota,1855 Flandro Drive,Pocatello,ID,83202,(208) 237-2700,Ecom11022@toyota.com,https://www.philmeadortoyota.com
11011,Stone's Town and Country Toyota,615 S. Yellowstone Highway,Rexburg,ID,83440,(208) 356-9366,Ecom11011@toyota.com,https://www.stonestoyota.com
11009,Wills Toyota,318 Shoshone Street West,Twin Falls,ID,83301,(208) 733-7365,Ecom11009@toyota.com,https://www.willstoyota.com
12112,Mungenast Alton Toyota,850 Homer Adams Parkway,Alton,IL,62002,(618) 208-2400,Ecom12112@toyota.com,https://www.altontoyota.com
12156,Sam Leman Toyota Bloomington,1615 Morrissey Drive,Bloomington,IL,61704,(309) 662-3800,,https://www.samlemantoyotabloomington.com
12114,Toyota of Bourbonnais,555 Latham Drive,Bourbonnais,IL,60914,(815) 933-7700,Ecom12114@toyota.com,https://www.toyotaofbourbonnais.com
12159,Advantage Toyota of River Oaks,1970 River Oaks Drive,Calumet City,IL,60409,(708) 862-0700,,https://www.advantagetoyotariveroaks.com
12150,Chicago Northside Toyota,6042 N. Western Avenue,Chicago,IL,60659,(773) 728-5000,mmustafa@blautogroup.com,https://www.chicagotoyota.com
12172,Toyota of Downtown Chicago,1561 North Fremont Street,Chicago,IL,60642,(312) 707-9500,,https://www.dttoyotachicago.com
12171,Toyota on Western,6941 South Western Ave,Chicago,IL,60636,(773) 776-4016,,https://www.toyotaonwestern.com
12166,Victory Toyota of Midtown,3255 North Cicero Avenue,Chicago,IL,60641,(773) 622-6300,,https://www.victorytoyotamidtown.com
12135,Pauly Toyota,1035 S. Route 31,Crystal Lake,IL,60014,(815) 459-7100,Ecom12135@toyota.com,https://www.paulytoyota.com
12151,Brian Bemis Toyota of DeKalb,1890 Sycamore Road,DeKalb,IL,60115,(815) 748-7300,abemis@brianbemis.com,https://www.dekalbtoyota.com
12111,Crown Toyota,255 W. Pershing Road,Decatur,IL,62526,(217) 872-5000,Ecom12111@toyota.com,https://www.crowntoyotadecatur.com
12136,Ken Nelson Toyota,1050 N. Galena Avenue,Dixon,IL,61021,(815) 288-4455,Ecom12136@toyota.com,https://www.kennelsontoyota.com
12169,McGrath Elmhurst Toyota,440 West Lake Street,Elmhurst,IL,60126,(630) 279-2160,,https://www.elmhursttoyota.com
12165,Toyota of Fox Lake,75 South Route 12,Fox Lake,IL,60020,(847) 587-9200,,https://www.toyotaoffoxlake.com
12168,Kunes Toyota of Galesburg,2763 N. Seminary Street,Galesburg,IL,61401,(309) 344-2080,,https://www.kunesgalesburgtoyota.com
12015,Continental Toyota,6701 S. La Grange Road,Hodgkins,IL,60525,(708) 354-5800,Ecom12015@toyota.com,https://www.continentaltoyota.com
12144,AutoNation Toyota Libertyville,1180 South Milwaukee Ave.,Libertyville,IL,60048,(224) 993-9001,Ecom12144@toyota.com,https://www.autonationtoyotalibertyville.com
12160,Toyota of Lincolnwood,7225 N. Cicero Avenue,Lincolnwood,IL,60712,(847) 675-7100,MBOGDAN@LEADERAUTO.COM,https://www.toyotalincolnwood.com
12074,Lombard Toyota,725 West Roosevelt Road,Lombard,IL,60148,(630) 629-3900,Ecom12074@toyota.com,https://www.lombardtoyota.com
12118,Anderson Toyota,4100 N. Perryville Road,Loves Park,IL,61111,(815) 397-8995,Ecom12118@toyota.com,https://www.andersontoyota.com
12149,Woodrum Toyota of Macomb,3100 East Jackson,Macomb,IL,61455,(309) 837-2321,Ecom12149@toyota.com,https://www.woodrumtoyota.com
12153,Marion Toyota,3300 W. Deyoung St.,Marion,IL,62959,(618) 997-5692,Ecom12153@toyota.com,https://www.mariontoyota.com
12164,Gerald Toyota of Matteson,5540 Auto Court,Matteson,IL,60443,(708) 720-8600,,https://www.geraldtoyotamatteson.com
12088,K.C. Summers Toyota,117 South 19th Street,Mattoon,IL,61938,(217) 234-8863,Ecom12088@toyota.com,https://www.kcsummerstoyota.com
12042,Hiland Toyota,5500 45th Avenue Drive,Moline,IL,61265,(309) 764-2481,Ecom12042@toyota.com,https://www.hilandtoyota.com
12162,Monken Toyota of Mt. Vernon,100 South 45th Street,Mt Vernon,IL,62864,(618) 242-0334,Wesmonken@gmail.com,https://www.monkentoyotamtvernon.com
12090,Toyota of Naperville,1488 West Ogden Avenue,Naperville,IL,60540,(630) 357-1578,tsales@dnwolf.com,https://www.toyotaofnaperville.com
12125,Fort's Toyota of Pekin,120 Radio City Drive,North Pekin,IL,61554,(309) 382-4000,Ecom12125@toyota.com,https://www.toyota-pekin.com
12167,Toyota on Edens,1530 Frontage Road,Northbrook,IL,60062,(847) 272-0808,,https://www.toyotaonedens.com
12071,Newbold Toyota,1282 Central Park Drive,O'Fallon,IL,62269,(618) 628-7000,Ecom12071@toyota.com,https://www.newboldtoyota.com
12100,Oak Lawn Toyota,4320 West 95th Street,Oak Lawn,IL,60453,(708) 423-5200,Ecom12100@toyota.com,https://www.oaklawntoyota.com
12174,Arlington Toyota,2095 N. Rand Road,Palatine,IL,60074,(847) 485-1200,,https://www.toyotaarlington.com
12077,Bredemann Toyota,1301 W. Dempster Street,Park Ridge,IL,60068,(847) 655-1407,Ecom12077@toyota.com,https://www.bredemanntoyota.com
12170,Peoria Toyota,7401 North Allen Road,Peoria,IL,61614,(309) 693-7000,,https://www.peoriatoyota.com
12147,Shottenkirk Toyota,5333 Broadway,Quincy,IL,62301,(217) 224-1500,Ecom12147@toyota.com,https://www.shottenkirktoyota.com
12133,Romeoville Toyota,684 S. Weber Road,Romeoville,IL,60446,(815) 744-2760,Stayintouch@romeovilletoyota.com,https://www.romeovilletoyota.com
12086,Schaumburg Toyota,875 West Golf Road,Schaumburg,IL,60194,(888) 565-3540,Ecom12086@toyota.com,https://www.schaumburgtoyota.com
12103,Green Toyota,3901 Wabash Avenue,Springfield,IL,62711,(217) 698-3100,Ecom12103@toyota.com,https://www.greentoyota.com
12138,St. Charles Toyota,2651 E. Main Street,St. Charles,IL,60174,(630) 584-6655,info@toyota.net,https://www.stcharlestoyota.net
12141,Elgin Toyota,1600 W. Lake Street,Streamwood,IL,60107,(847) 741-2100,Ecom12141@toyota.com,https://www.elgintoyota.com
12148,Toyota of Danville,2106 Georgetown Road,Tilton,IL,61833,(217) 442-8474,Ecom12148@toyota.com,https://www.toyotaofdanville.com
12082,Orland Toyota,8485 West 159th St,Tinley Park,IL,60487,(708) 429-3900,leads@sales.orlandtoyota.com,https://www.orlandtoyota.com
12155,Napleton's Toyota of Urbana,1101 Napleton Way,Urbana,IL,61802,(217) 367-1222,,https://www.napletonstoyotaofurbana.com
12137,Classic Toyota,515 N. Green Bay Road,Waukegan,IL,60085,(847) 336-4300,Ecom12137@toyota.com,https://www.classicdirecttoyota.com
12134,Oakbrook Toyota in Westmont,550 East Ogden Avenue,Westmont,IL,60559,(630) 789-9600,Ecom12134@toyota.com,https://www.oakbrooktoyota.com
13070,Andy Mohr Toyota,8941 E. U.S. Hwy. 36,Avon,IN,46123,(317) 686-9682,Ecom13070@toyota.com,https://www.andymohrtoyota.com
13045,Royal South Toyota,3115 S. Walnut Street,Bloomington,IN,47401,(812) 331-1100,Ecom13045@toyota.com,https://www.royalsouthtoyota.com
13081,Graff Toyota of Chesterton,244 Melton Road,Burns Harbor,IN,46304,(219) 787-8600,jhiller@hankgraff.com,https://www.grafftoyotachesterton.com
13047,Jeff Wyler Toyota of Clarksville,808 E. Lewis & Clark Parkway,Clarksville,IN,47129,(812) 284-2277,Ecom13047@toyota.com,https://jeffwylerclarksvilletoyota.com
13044,Heart City Toyota,711 N. Nappanee Street,Elkhart,IN,46514,(574) 522-6600,kentl@heartcityauto.com,https://www.heartcitytoyota.com
13067,Kenny Kent Toyota,5600 East Division Street,Evansville,IN,47715,(812) 473-5600,Ecom13067@toyota.com,https://www.kennykenttoyota.com
13035,Evans Toyota,515 West Coliseum Blvd,Fort Wayne,IN,46808,(260) 482-3730,Ecom13035@toyota.com,https://www.evanstoyota.com
13053,Fort Wayne Toyota,6162 Illinois Road,Fort Wayne,IN,46804,(260) 436-4567,Ecom13053@toyota.com,https://www.fortwaynetoyota.com
13077,Bill Estes Toyota,3232 Harper Road,Indianapolis,IN,46240,(317) 846-9600,,https://www.billestestoyota.com
13080,Hubler Toyota,8055 U.S. 31 South,Indianapolis,IN,46227,(317) 882-2600,,https://www.hublertoyota.com
13057,O'Brien Toyota,2550 N. Shadeland Avenue,Indianapolis,IN,46219,(317) 351-7000,Ecom13057@toyota.com,https://www.obrientoyota.com
13054,Uebelhor Toyota,788 W. 12th Avenue,Jasper,IN,47546,(812) 482-2222,Ecom13054@toyota.com,https://www.uebelhortoyota.com
13042,Kokomo Toyota,3813 S. LaFountain Street,Kokomo,IN,46902,(765) 453-4111,Ecom13042@toyota.com,https://www.kokomo-toyota.com
13027,Bob Rohrman Toyota,3900 State Road 26 East,Lafayette,IN,47905,(765) 448-1000,Ecom13027@toyota.com,https://www.rohrmantoyota.com
13079,Toyota of Madison,258 Clifty Drive,Madison,IN,47250,(812) 273-3135,,https://www.toyotaofmadison.net
13068,Toyota of Merrillville,4450 E. Lincoln Highway,Merrillville,IN,46410,(219) 947-3325,Ecom13068@toyota.com,https://www.toyotaofmerrillville.com
13075,Jordan Toyota,920 E. Jefferson Blvd.,Mishawaka,IN,46545,(574) 259-1981,,https://www.jordantoyota.com
13071,Toyota of Muncie,3311 N. Nebo Road,Muncie,IN,47304,(765) 289-0201,Ecom13071@toyota.com,https://www.toyotaofmuncie.com
13058,Ed Martin Toyota,9230 E. 141 Street,Noblesville,IN,46060,(317) 764-2700,Ecom13058@toyota.com,https://www.edmartintoyota.com
13076,Cronin Toyota of  Richmond,5601 National Road East,Richmond,IN,47374,(765) 966-4569,,https://www.cronintoyotaofrichmond.com
13060,Team Toyota,400 Indianapolis Blvd.,Schererville,IN,46375,(219) 924-8100,Ecom13060@toyota.com,https://www.teamtoyotaon41.com
13046,Gates Toyota,640 W. Ireland Road,South Bend,IN,46614,(574) 299-7400,Ecom13046@toyota.com,https://www.gatestoyota.com
13066,Carver Toyota of Columbus,10255 N. U.S. Highway 31,Taylorsville,IN,47280,(812) 526-7700,Ecom13066@toyota.com,https://www.carvertoyota.com
13069,Toyota of Terre Haute,7030 South U.S. Hwy 41,Terre Haute,IN,47802,(812) 298-3300,Ecom13069@toyota.com,https://www.toyotaofterrehaute.com
13073,Toyota of Warsaw,448 W. 250 North,Warsaw,IN,46582,(574) 267-4636,Ecom13073@toyota.com,https://www.toyotawarsaw.com
13033,Tom Wood Toyota,6408 Crane Drive,Whitestown,IN,46075,(317) 297-2444,Ecom13033@toyota.com,https://www.tomwoodtoyota.com
15021,Lewis Toyota of Dodge City,907 S 2nd Street,Dodge City,KS,67801,(620) 225-2210,ltdc_leads@buylewis.com,https://www.lewistoyotaofdodgecity.com
15059,Lewis Toyota of Garden City,1221 Lareu Road,Garden City,KS,67846,(620) 275-7172,ltngc_leads@buylewis.com,https://www.lewistoyotaofgardencity.com
15054,Midwest Toyota,1100 E. 30th Avenue,Hutchinson,KS,67502,(620) 662-6631,Ecom15054@toyota.com,https://www.midwesttoyotadealer.com
15056,Legends Toyota,10100 Parallel Parkway,Kansas City,KS,66109,(913) 299-8600,Ecom15056@toyota.com,https://www.legendstoyota.com
15051,Crown Toyota,3430 S. Iowa Street,Lawrence,KS,66046,(785) 843-7700,Ecom15051@toyota.com,https://www.crowntoyotaoflawrence.com
15047,Hendrick Toyota Merriam,9505 W. 67th Street,Merriam,KS,66203,(913) 831-0800,Ecom15047@toyota.com,https://www.hendricktoyotamerriam.com
15050,Olathe Toyota,685 N. Rawhide,Olathe,KS,66061,(913) 780-9919,Ecom15050@toyota.com,https://www.olathetoyota.com
15052,Conklin Toyota Salina,2700 South 9th Street,Salina,KS,67401,(785) 825-8271,Ecom15052@toyota.com,https://www.conklintoyotasalina.com
15010,Lewis Toyota of Topeka,2951 S.W. Fairlawn Road,Topeka,KS,66614,(785) 273-2220,Ecom15010@toyota.com,https://www.lewistoyota.com
15012,Eddy's Toyota of Wichita,7333 East Kellogg,Wichita,KS,67207,(316) 652-2222,Ecom15012@toyota.com,https://www.eddystoyota.com
16065,Toyota of Ashland,3503 Winchester Avenue,Ashland,KY,41101,(606) 744-2727,,https://www.toyotaofashland.com
16042,Toyota of Bowling Green,2398 Scottsville Road,Bowling Green,KY,42104,(270) 843-4321,Ecom16042@toyota.com,https://www.toyotaofbowlinggreen.com
16058,Kerry Toyota Service Center,550 Pike Street,Covington,KY,41011,(859) 581-0911,Ecom16058@toyota.com,www.kerrytoyota.com
16052,Marshall Dry Ridge Toyota,9 Taft Highway,Dry Ridge,KY,41035,(859) 824-9200,sales@dryridgetoyota.com,https://www.marshalldryridgetoyota.com
16004,Swope Toyota,1085 North Dixie Highway,Elizabethtown,KY,42701,(270) 737-2181,Ecom16004@toyota.com,https://www.swopetoyota.com
16050,Kerry Toyota,6050 Hopeful Church Road,Florence,KY,41042,(859) 371-3939,Ecom16050@toyota.com,https://www.kerrytoyota.com
16061,Frankfort Toyota,1001 Leestown Road,Frankfort,KY,40601,(502) 695-1500,Ecom16061@toyota.com,https://www.frankforttoyota.com
16044,Toyota of Hopkinsville,4395 Ft. Campbell Blvd,Hopkinsville,KY,42240,(270) 886-9099,Ecom16044@toyota.com,https://www.toyotaofhopkinsville.com
16005,Green's Toyota of Lexington,630 E. New Circle Road,Lexington,KY,40505,(859) 254-5751,Ecom16005@toyota.com,https://www.greenstoyotaoflexington.com
16051,Oxmoor Toyota,8003 Shelbyville Road,Louisville,KY,40222,(502) 426-1200,calvey@oxmoorautogroup.com,https://www.oxmoortoyota.com
16006,Toyota of Louisville,6514 Dixie Highway,Louisville,KY,40258,(502) 935-1433,Ecom16006@toyota.com,https://www.toyotaoflouisville.com
16067,Toyota of Madisonville,1055 Crossing Place,Madisonville,KY,42431,(270) 821-3372,btyson@toyotaofmville.com,https://www.toyotaofmadisonville.com
16046,Toyota of Murray,1301 South 12th Street,Murray,KY,42071,(270) 753-4961,Ecom16046@toyota.com,https://www.toyotaofmurray.com
16056,Toyota on Nicholasville,2100 Lexington Road,Nicholasville,KY,40356,(859) 887-4200,sales@toyotanicholasville.edealerhub.com,https://www.toyotaonnicholasville.com
16059,Don Moore Toyota,4216 Frederica Street,Owensboro,KY,42301,(270) 926-2500,Ecom16059@toyota.com,https://www.donmooretoyota.com
16064,Coad Toyota Paducah,3941 Mike Smith Drive,Paducah,KY,42001,(270) 408-6453,,https://www.coadtoyotapaducah.com
16055,Walters Toyota,30 Walters Lane,Pikeville,KY,41501,(606) 432-1451,Ecom16055@toyota.com,https://www.walterstoyota.com
16062,Mann Toyota,1811 U.S. Highway 23 North,Prestonsburg,KY,41653,(606) 886-3861,Ecom16062@toyota.com,https://www.manntoyota.com
16049,Toyota South,961 Four Mile Road,Richmond,KY,40475,(859) 624-1313,Ecom16049@toyota.com,https://www.toyotasouth.com
17075,Walker Toyota,5735 Coliseum Blvd.,Alexandria,LA,71303,(318) 445-1486,,https://www.walker-toyota.com
17078,Vaughn Toyota of Bastrop,2329 East Madison Avenue,Bastrop,LA,71220,(318) 281-5555,,https://www.vaughntoyota.com
17083,All Star Toyota of Baton Rouge,9150 Airline Highway,Baton Rouge,LA,70815,(225) 925-2525,,https://www.allstartoyotaofbatonrouge.com
17014,Price LeBlanc Toyota,13250 Airline Highway,Baton Rouge,LA,70817,(225) 408-1100,internet@priceleblanctoy.com,https://www.priceleblanctoyota.com
17055,Team Toyota,1788 O'Neal Lane,Baton Rouge,LA,70816,(225) 273-5880,sales@team-toyota.com,https://www.team-toyota.com
17057,John Harvey Toyota,2901 Benton Road,Bossier City,LA,71111,(318) 741-1337,sales@johnharveytoyota.com,https://www.johnharveytoyota.com
17066,Northshore Toyota,68500 Hwy 190 Service Rd.,Covington,LA,70433,(985) 893-7778,internet@northshoretoyota.com,https://www.northshoretoyota.com
17073,Hixson Toyota,2517 Highway 171,DeRidder,LA,70634,(337) 239-3452,leads@hixsonleesville.responselogix.com,https://www.hixsontoyota.com
17071,Supreme Toyota of Hammond,1415 South Morrison Blvd,Hammond,LA,70403,(985) 345-1425,MElliott@supremeauto.net,https://www.supremetoyota.com
17062,Group 1 Toyota West Bank,3800 Lapalco Blvd.,Harvey,LA,70058,(504) 341-3300,internet@bohnbrostoyota.com,https:// www.group1toyotawestbank.com
17070,Greg Leblanc Toyota,220 S. Hollywood Road,Houma,LA,70360,(985) 876-7210,internet@gregleblanctoyota.com,https://www.gregleblanctoyota.com
17029,Bubba Oustalet Toyota,246 North Broadway,Jennings,LA,70546,(337) 824-3673,sales@oustalettoyota.com,https://www.oustalettoyota.com
17080,Toyota of Kenner,2460 Veterans Memorial Blvd,Kenner,LA,70062,(504) 464-4500,,https://www.toyotaofkenner.net
17065,Hampton Toyota,6191 Johnston Street,Lafayette,LA,70503,(337) 984-5010,internet@hamptontoyota.com,https://www.hamptontoyota.com
17060,Lake Charles Toyota,3905 Gerstner Memorial Dr,Lake Charles,LA,70607,(337) 478-3511,internet@lakecharlestoyota.com,https://www.lakecharlestoyota.com
17050,Lakeside Toyota,3701 North Causeway Blvd.,Metairie,LA,70002,(504) 833-3311,internet@lakesidetoyota.com,https://www.lakesidetoyota.com
17027,Van-Trow Toyota,2015 Louisville Avenue,Monroe,LA,71201,(318) 387-2020,internet@vantrowtoyota.com,https://www.vantrowtoyota.com
17081,Morgan City Toyota,1105 Brashear Avenue,Morgan City,LA,70380,(985) 380-2395,,https://www.morgancitytoyota.com
17041,Musson-Patout Toyota,208 West Hwy 90 Frontage Rd,New Iberia,LA,70560,(337) 367-0488,internet@mussonpatouttoyota.com,https://www.mussonpatouttoyota.com
17058,Toyota of New Orleans,13150 I-10 Service Road,New Orleans,LA,70128,(504) 940-0000,internet@toyotaneworleans.com,https://www.toyotaofneworleans.com
17079,Price LeBlanc Toyota of Acadiana,4127 I-49 South Service Road,Opelousas,LA,70570,(337) 948-8255,brent@leblancauto.com,https://www.priceleblanctoyotaofacadiana.com
17076,Karl Malone Toyota of Ruston,1001 N. Service Road East,Ruston,LA,71270,(318) 255-1387,,https://www.karlmalonetoyotaofruston.com
17023,Yokem Toyota,1199 E. Bert Kouns Ind. Loop,Shreveport,LA,71105,(318) 798-3773,sales@yokemtoyota.com,https://www.yokemtoyota.com
17082,Carlock Toyota of Slidell,300 E. Howze Beach Road,Slidell,LA,70461,(985) 643-0005,,https://www.carlocktoyotaofslidell.com
20155,Herb Chambers Toyota Auburn,809 Washington Street,Auburn,MA,01501,(508) 832-8000,,https://www.herbchamberstoyotaofauburn.com
20156,Herb Chambers Toyota Boston,32 Brighton Avenue,Boston,MA,02134,(617) 787-1700,,https://www.herbchamberstoyotaofboston.com
20149,Parkway Toyota of Boston,1605 VFW Parkway,Boston,MA,02132,(617) 469-1000,info@parkwaytoyotaboston.com,https://www.parkwaytoyotaboston.com
20096,Falmouth Toyota,290 Mac Arthur Blvd.,Bourne,MA,02532,(508) 759-1900,Ecom20096@toyota.com,https://www.falmouthtoyota.com
20122,Tufankjian Toyota of Braintree,210 Union Street,Braintree,MA,02184,(781) 848-9300,Ecom20122@toyota.com,https://www.toyotaofbraintree.com
20051,Copeland Toyota,970 West Chestnut Street,Brockton,MA,02301,(508) 584-2440,Ecom20051@toyota.com,https://www.copelandtoyota.com
20127,Ira Toyota,99B Andover Street,Danvers,MA,01923,(978) 739-8300,Ecom20127@toyota.com,https://www.toyotaofdanvers.com
20152,Tasca Toyota Boston,700 Morrissey Blvd.,Dorchester,MA,02122,(617) 265-4321,,https://www.tascatoyotaboston.com
20109,Bernardi Toyota,1626 Worcester Road,Framingham,MA,01702,(508) 879-1520,Ecom20109@toyota.com,https://www.bernarditoyota.com
20134,Toyota of Greenfield,One Main Street,Greenfield,MA,01301,(413) 773-5455,jpotter@fathers-sons.com,https://www.toyotaofgreenfield.com
20063,McGee Toyota,860-880 Washington St,Hanover,MA,02339,(781) 826-8333,Ecom20063@toyota.com,https://www.mcgeetoyota.com
20006,Jaffarian Toyota,600 River St,Haverhill,MA,01832,(978) 372-8551,Ecom20006@toyota.com,https://www.jaffarian-toyota.com
20147,Ira Toyota of Hyannis,1020 Iyannough Road,Hyannis,MA,02601,(508) 775-1230,,https://www.iratoyotaofhyannis.com
20111,Sullivan Brothers Toyota,5 Gallen Road,Kingston,MA,02364,(781) 585-1300,Ecom20111@toyota.com,https://www.sullivanbrotherstoyota.com
20150,Koch Route 2 Toyota,700 Old Union Turnpike,Lancaster,MA,01523,(978) 353-1700,,https://www.kochrt2toyota.com
20102,Lexington Toyota,409 Massachusetts Avenue,Lexington,MA,02420,(781) 861-7400,Ecom20102@toyota.com,https://www.lexingtontoyota.com
20146,Acton Toyota of Littleton,221 Great Road,Littleton,MA,01460,(978) 263-1500,,https://www.actontoyota.com
20153,Atlantic Toyota,671 Lynnway,Lynn,MA,01905,(781) 599-4922,mbrown@atlantictoyota.com,https://www.atlantictoyota.com
20145,Imperial Toyota,300 Fortune Blvd.,Milford,MA,01757,(508) 478-0500,customercare@imperialcars.com,https://www.imperialtoyotama.com
20009,K-M Toyota,51 West Main Street,North Adams,MA,01247,(413) 663-5731,Ecom20009@toyota.com,https://www.kmmotors.com
20144,Nucar Toyota of North Attleboro,620 South Washington St.,North Attleboro,MA,02760,(866) 660-4426,,https://www.nucartoyotanorthattleboro.com
20128,Toyota of Dartmouth,100 Old Faunce Corner Road,North Dartmouth,MA,02747,(508) 993-2616,Ecom20128@toyota.com,https://www.toyotaofdartmouth.com
20133,Lia Toyota of Northampton,280 King Street,Northampton,MA,01060,(413) 586-8922,Ecom20133@toyota.com,https://www.liatoyotaofnorthampton.com
20141,Nucar Toyota of Norwood,277 Providence Highway,Norwood,MA,02062,(866) 632-4792,leadsbt@dcd.auto,https://www.nucartoyotanorwood.com
20148,Ira Toyota of Orleans,16 O'Connor Road,Orleans,MA,02653,(774) 801-7100,,https://www.iratoyotaoforleans.com
20049,Haddad Toyota,130 Pittsfield-Lenox Road,Pittsfield,MA,01201,(413) 445-4535,Ecom20049@toyota.com,https://www.haddadtoyota.com
20125,Route 44 Toyota,1154 New State Highway,Raynham,MA,02767,(508) 824-4044,Ecom20125@toyota.com,https://www.route44toyota.com
20140,"Bristol Toyota, Inc.",2283 Grand Army Highway,Swansea,MA,02777,(401) 253-2100,,https://www.bristoltoyota.com
20151,AutoFair Toyota of Tewksbury,468 Main Street,Tewksbury,MA,01876,(978) 863-9009,,https://www.AutoFairToyota.com
20019,Toyota of Watertown,149 Arsenal St,Watertown,MA,02472,(617) 926-5200,Ecom20019@toyota.com,https://www.toyotaofwatertown.com
20113,Toyota of Wellesley,234 Worcester Street,Wellesley,MA,02481,(781) 237-2970,Ecom20113@toyota.com,https://www.wellesleytoyota.com
20016,Balise Toyota,1399 Riverdale Street,West Springfield,MA,01089,(413) 734-8795,Ecom20016@toyota.com,https://www.balisetoyota.com/
20058,"Westboro Toyota, Inc.",271 Turnpike Road,Westborough,MA,01581,(508) 366-1741,Ecom20058@toyota.com,https://www.westborotoyota.com
20123,Lia Toyota,2145 Boston Road,Wilbraham,MA,01095,(413) 596-2000,Ecom20123@toyota.com,https://www.liatoyotaofwilbraham.com
20087,Woburn Toyota,394 Washington Street,Woburn,MA,01801,(781) 933-1100,Ecom20087@toyota.com,https://www.woburntoyota.com
20101,Harr Toyota,100 Gold Star Boulevard,Worcester,MA,01606,(508) 471-2500,Ecom20101@toyota.com,https://www.harrtoyota.com
19079,Koons Toyota Annapolis,1107 West Street,Annapolis,MD,21401,(410) 268-6480,,https://www.koonstoyotaannapolis.com
19089,AutoNation Toyota White Marsh,8001 Belair Road,Baltimore,MD,21236,(410) 661-5700,,https://www.autonationtoyotawhitemarsh.com
19069,DARCARS Toyota of Baltimore,6007 Eastern Avenue,Baltimore,MD,21224,(410) 633-2200,Ecom19069@toyota.com,https://www.darcarstoyotaofbaltimore.com
19071,Heritage Toyota Catonsville,6324 Baltimore Ntl Pike,Baltimore,MD,21228,(410) 788-8400,,https://www.heritagetoyotacatonsville.com
19005,Jones Toyota,1510 Belair Road,Bel Air,MD,21014,(410) 879-6400,Ecom19005@toyota.com,https://www.jonesjunction-toyota.com
19045,Jim Coleman Toyota,10400 Auto Park Avenue,Bethesda,MD,20817,(301) 469-7100,Ecom19045@toyota.com,https://www.jimcolemantoyota.com
19082,Toyota of Bowie,16700 Governor Bridge Road,Bowie,MD,20716,(301) 867-1600,,https://www.toyotaofbowie.com
19044,Antwerpen's Toyota,12420 Auto Drive,Clarksville,MD,21029,(410) 531-5700,Ecom19044@toyota.com,https://www.antwerpentoyota.com
19084,Sheehy Toyota of Timonium,10401 York Road,Cockeysville,MD,21030,(410) 666-8900,,https://www.sheehytoyotatimonium.com
19091,Preston Toyota of Easton,6730 Ocean Gateway,Easton,MD,21601,(410) 822-8000,,https://www.prestontoyotamd.com
19077,Ourisman Toyota 40,1101 Business Center Way,Edgewood,MD,21040,(410) 679-1500,mike@ourismancars.com,https://www.ourismantoyota40.com
19063,DARCARS Toyota of Frederick,5293 Buckeystown Pike,Frederick,MD,21704,(301) 696-6300,Ecom19063@toyota.com,https://www.darcarstoyotaoffrederick.com
19066,DARCARS Toyota of Frederick Service Center,1040 West Patrick Street,Frederick,MD,21701,(301) 662-8293,Ecom19066@toyota.com,http://darcarsfrederick.xigroupauto.com
19052,Fitzgerald Toyota Gaithersburg,907 N. Frederick Avenue,Gaithersburg,MD,20879,(301) 921-0300,Ecom19052@toyota.com,https://www.fitzgeraldtoyotagaithersburg.com
19078,Safford Brown Toyota Glen Burnie,7167 Ritchie Highway,Glen Burnie,MD,21061,(410) 761-9000,JStefero@SaffordBrown.com,https://www.saffordbrowntoyotaglenburnie.com
19083,Toyota Certified at Capital Plaza,6100 Annapolis Road,Greater Landover,MD,20784,(301) 772-6900,,https://www.toyotacapitalplaza.com
19028,Younger Toyota,1945 Dual Highway,Hagerstown,MD,21740,(301) 733-2300,dcarroll@youngertoyota.com,https://www.youngertoyota.com
19076,Sheehy Toyota of Laurel,8801 Freestate Drive,Laurel,MD,20723,(301) 362-3399,chrisprender@sheehy.com,https://www.sheehytoyotalaurel.com
19088,CMA's Toyota of Lexington Park,22500 Three Notch Road,Lexington Park,MD,20653,(301) 863-7555,,https://www.cmastoyotaoflexingtonpark.com
19072,Heritage Toyota Owings Mills,9801 Reisterstown Road,Owings Mills,MD,21117,(410) 363-2000,,https://www.heritagetoyotaowingsmills.com
19075,Hertrich Toyota of Pocomoke,1337 Ocean Highway,Pocomoke City,MD,21851,(410) 957-4444,,https://www.hertrichtoyotapocomoke.com
19056,Bayside Toyota,105 Auto Drive,Prince Frederick,MD,20678,(410) 535-1500,Ecom19056@toyota.com,https://www.baysidetoyota.com
19057,355 Toyota,15625 Frederick Road,Rockville,MD,20855,(301) 340-0900,Ecom19057@toyota.com,https://www.355toyota.com
19061,Pohanka Toyota of Salisbury,2010 N. Salisbury Blvd.,Salisbury,MD,21801,(410) 543-2000,Ecom19061@toyota.com,https://www.pohankatoyotamd.com
19043,DARCARS Toyota,12210 Cherry Hill Road,Silver Spring,MD,20904,(301) 622-0300,Ecom19043@toyota.com,https://www.darcarstoyota.com
19070,Passport Toyota,5001 Auth Way,Suitland,MD,20746,(301) 899-6000,Ecom19070@toyota.com,https://www.passporttoyota.com
19074,Waldorf Toyota,2600 Crain Highway,Waldorf,MD,20601,(301) 843-3700,,https://www.waldorftoyota.com
19080,Koons Toyota Westminster,375 Baltimore Blvd.,Westminster,MD,21157,(888) 461-7519,,https://www.koonstoyotawestminster.com
18034,Emerson Toyota,990 Center Street,Auburn,ME,04210,(207) 784-1348,Ecom18034@toyota.com,https://www.emersontoyota.com
18033,Charlie's Toyota,451 Western Avenue,Augusta,ME,04330,(207) 622-4748,Ecom18033@toyota.com,https://www.charliestoyota.com
18010,Down East Toyota,652 Wilson Street,Brewer,ME,04412,(207) 989-6400,Ecom18010@toyota.com,https://www.downeasttoyota.com
18031,York Toyota,315 North Street,Houlton,ME,04730,(207) 532-6534,Ecom18031@toyota.com,https://www.yorkstoyota.com
18037,Berlin City Toyota of Portland,191 Riverside Street,Portland,ME,04103,(207) 321-3477,Ecom18037@toyota.com,https://www.berlincitytoyotame.com
18023,Shepard Toyota,"181 New County Road, Route 1",Rockland,ME,04841,(207) 594-8424,Ecom18023@toyota.com,https://www.shepardtoyota.com
18038,Ira Toyota Saco,783 Portland Road,Saco,ME,04072,(207) 282-6161,,https://www.iratoyotasaco.com
18035,Lee Toyota,115 Main Street,Topsham,ME,04086,(207) 729-3358,Ecom18035@toyota.com,https://www.leetoyota.com
18032,Central Maine Toyota,15 Airport Road,Waterville,ME,04901,(207) 872-5444,Ecom18032@toyota.com,https://www.cmtoy.com
21124,Toyota of Ann Arbor,3745 Jackson Road,Ann Arbor,MI,48103,(734) 997-7600,sales@toyotaofannarbor.com,https://www.toyotaofannarbor.com
21068,Sunshine Toyota,1355 West Dickman Road,Battle Creek,MI,49037,(269) 965-1000,Ecom21068@toyota.com,https://www.sunshinetoyota.com
21107,Labadie Toyota,909 N. Euclid Avenue,Bay City,MI,48706,(989) 684-2222,Ecom21107@toyota.com,https://www.labadietoyota.com
21120,Signature Toyota,680 East Napier,Benton Harbor,MI,49022,(269) 926-0031,,https://www.signaturetoyota.com
21115,Fox Toyota of Cadillac,1490 N Mitchell Street,Cadillac,MI,49601,(231) 779-1784,Ecom21115@toyota.com,https://www.foxtoyotaofcadillac.com
21110,Victory Toyota,46352 Michigan Avenue,Canton,MI,48188,(734) 495-3500,Ecom21110@toyota.com,https://www.victorytoyotacanton.com
21108,Fernelius Toyota,11283 Straits Highway,Cheboygan,MI,49721,(231) 627-5673,Ecom21108@toyota.com,https://www.ferneliustoyota.com
21061,LaFontaine Toyota,2027 S. Telegraph Road,Dearborn,MI,48124,(313) 561-6600,Ecom21061@toyota.com,https://www.lafontainetoyota.com
21127,Germain Toyota of Dundee,16490 Tecumseh Street,Dundee,MI,48131,(734) 242-3900,dwilson@germain.com,https://www.germaintoyotaofdundee.com
21100,Riverside Toyota of Escanaba,2600 Ludington Street,Escanaba,MI,49829,(906) 786-5531,Ecom21100@toyota.com,https://www.riversidetoyotaescanaba.com
21123,Suburban Toyota of Farmington Hills,25000 Haggerty Road,Farmington Hills,MI,48335,(248) 699-7100,,https://www.suburbantoyotaoffarmingtonhills.com
21125,Randy Wise Toyota,8420 Holly Road,Grand Blanc,MI,48439,(810) 344-9600,,https://www.randywisetoyota.com
21095,Kool Toyota,3780 Plainfield Avenue,Grand Rapids,MI,49525,(616) 364-9700,Ecom21095@toyota.com,https://www.kooltoyota.com
21065,Toyota of Grand Rapids,"2555 28th Street, S.E.",Grand Rapids,MI,49512,(616) 942-5290,Ecom21065@toyota.com,https://www.toyotaofgrandrapids.com
21101,Crown Toyota,11260 Chicago Drive,Holland,MI,49423,(616) 393-0400,Ecom21101@toyota.com,https://www.crownmotorstoyota.com
21032,Bergeron Toyota,1600 N. Stephenson Ave.,Iron Mountain,MI,49801,(906) 774-2189,Ecom21032@toyota.com,https://www.bergerontoyota.net
21072,Metro Toyota,5850 Stadium Drive,Kalamazoo,MI,49009,(269) 375-1000,Ecom21072@toyota.com,https://www.metro-toyota.com
21126,Spartan Toyota,5701 S. Pennsylvania Ave,Lansing,MI,48911,(517) 394-6000,bcogley@germain.com,https://www.spartantoyota.com
21117,Matick Toyota,23405 Hall Road,Macomb,MI,48042,(586) 463-9000,mwilliams@matickauto.com,https://www.maticktoyota.com
21096,Riverside Toyota,3330 US Highway 41 West,Marquette,MI,49855,(906) 228-4900,Ecom21096@toyota.com,https://www.riversidetoyotamarquette.com
21104,Toyota of Muskegon,1860 E. Sternberg Road,Muskegon,MI,49444,(231) 799-2886,Ecom21104@toyota.com,https://www.toyotaofmuskegon.com
21112,Fox Toyota,773 South Rochester Road,Rochester Hills,MI,48307,(248) 656-0400,Ecom21112@toyota.com,https://www.toyotabyfox.com
21119,Serra Toyota of Saginaw,4320 Bay Road,Saginaw,MI,48603,(989) 790-0800,nate.maciag@serrasaginaw.com,https://www.serratoyotasaginaw.com
21039,Page Toyota,21262 Telegraph Road,Southfield,MI,48033,(248) 352-8580,Ecom21039@toyota.com,https://www.pagetoyota.com
21074,Serra Toyota of Traverse City,1302 S. Garfield Avenue,Traverse City,MI,49686,(231) 946-5540,Ecom21074@toyota.com,https://www.serratoyotatraversecity.com
21122,Suburban Toyota of Troy,2100 W. Maple Road,Troy,MI,48084,(248) 643-8500,,https://www.suburbantoyotaoftroy.com
21121,Golling Toyota of Warren,27100 Van Dyke Avenue,Warren,MI,48093,(586) 758-2000,,https://www.gollingtoyota.com
21116,Szott M-59 Toyota,4178 Highland Road,Waterford,MI,48328,(248) 333-3300,Ecom21116@toyota.com,https://www.szottm59toyota.com
22055,Lake Country Toyota,7036 Lake Forest Road,Baxter,MN,56401,(218) 454-2200,Ecom22055@toyota.com,https://www.lakecountrytoyota.com
22017,Chester Berg Toyota,705 Paul Bunyan Drive NW,Bemidji,MN,56601,(218) 444-3040,cberg@cbergtoyota.com,https://www.chesterbergtoyota.com
22048,Walser Bloomington Toyota,4401 American Blvd. West,Bloomington,MN,55437,(952) 213-4041,leads@drivewalsertoyota.com,https://www.walsertoyota.com
22038,Luther Brookdale Toyota,6700 Brooklyn Boulevard,Brooklyn Center,MN,55429,(763) 331-6700,Ecom22038@toyota.com,https://www.lutherbrookdaletoyota.com
22041,Burnsville Toyota,14730 Buck Hill Road,Burnsville,MN,55306,(952) 435-8200,Ecom22041@toyota.com,https://www.burnsvilletoyota.com
22046,Carlson Toyota,12880 Riverdale Dr. NW,Coon Rapids,MN,55448,(763) 427-3200,Ecom22046@toyota.com,https://www.carlsontoyota.com
22034,Kolar Toyota,4781 Miller Trunk Hwy.,Duluth,MN,55811,(218) 733-0100,Ecom22034@toyota.com,https://www.kolartoyota.com
22045,Quality Toyota,1125 W. Lincoln Avenue,Fergus Falls,MN,56537,(218) 998-1900,online@qualitytoyota.net,https://www.qualitytoyota.net
22030,Rudy Luther Toyota,8805 Wayzata Blvd,Golden Valley,MN,55426,(763) 222-2020,Ecom22030@toyota.com,https://www.rudyluthertoyota.com
22053,Inver Grove Toyota,1037 50th Street,Inver Grove Heights,MN,55077,(651) 455-6000,Ecom22053@toyota.com,https://www.invergrovetoyota.com
22056,LeadCar Toyota Mankato,1234 Raintree Road,Mankato,MN,56001,(507) 387-1148,,https://www.leadcartoyotamankato.com
22035,Maplewood Toyota,2873 Maplewood Dr.,Maplewood,MN,55109,(651) 482-1322,Ecom22035@toyota.com,https://www.maplewoodtoyota.com
22047,Rochester Toyota,"4365 Canal Place, S.E.",Rochester,MN,55904,(507) 286-1200,Ecom22047@toyota.com,https://www.rochestertoyota.com
22051,Iron Trail Toyota,1301 S. 17th Street,Virginia,MN,55792,(218) 741-2355,Ecom22051@toyota.com,https://www.irontrailtoyota.com
22021,St. Cloud Toyota,418 2nd Street South,Waite Park,MN,56387,(320) 253-2581,Ecom22021@toyota.com,https://www.stcloudtoyota.com
22044,Mills Toyota,3700 Highway 71 South,Willmar,MN,56201,(320) 231-1160,Ecom22044@toyota.com,https://www.millstoyota.com
22054,Dahl Toyota Winona,1077 W. Service Drive,Winona,MN,55987,(507) 452-4080,tony.benson@dahlauto.com,https://www.dahltoyotawinona.com
24077,Jay Wolfe Toyota of West County,14700 Manchester Road,Ballwin,MO,63011,(636) 207-3900,Ecom24077@toyota.com,https://www.toyotaofwestcounty.com
24078,Coad Toyota,357 Siemers Drive,Cape Girardeau,MO,63701,(573) 335-2927,Ecom24078@toyota.com,https://www.coadtoyota.com
24084,Joe Machens Toyota,1180 Vandiver Drive,Columbia,MO,65202,(573) 445-4450,,https://www.joemachenstoyota.com
24022,Seeger Toyota,12833 Olive Street Road,Creve Coeur,MO,63141,(314) 434-5000,Ecom24022@toyota.com,https://www.seegertoyota.com
24085,Bommarito Toyota,9095 Dunn Road,Hazelwood,MO,63042,(314) 731-0911,,https://www.bommaritotoyota.net
24067,Twin City Toyota,301 Autumn Ridge Drive,Herculaneum,MO,63048,(636) 931-0555,Ecom24067@toyota.com,https://www.twincitytoyota.com
24087,Rusty Drewing Toyota,2105 Christy Drive,Jefferson City,MO,65101,(573) 893-3100,,https://www.rustydrewingtoyota.com
24076,Frank Fletcher Toyota,2209 S. Rangeline Road,Joplin,MO,64804,(417) 626-9200,Ecom24076@toyota.com,https://www.fletcher-toyota.com
24074,Jay Wolfe Toyota,9650 NW Prairie View Road,Kansas City,MO,64153,(816) 454-8999,Ecom24074@toyota.com,https://www.jaywolfetoyota.com
24061,"Molle Toyota, Inc.",601 West 103rd Street,Kansas City,MO,64114,(816) 942-5200,Ecom24061@toyota.com,https://www.molletoyota.com
24083,Kirksville Toyota,3607 N. Baltimore Street,Kirksville,MO,63501,(660) 665-2805,,https://www.kirksvilletoyota.com
24045,Lou Fusz Toyota,10725 Manchester Road,Kirkwood,MO,63122,(314) 966-5404,Ecom24045@toyota.com,https://www.fusztoyota.com
24026,Adams Toyota Lee's Summit,501 N.E. Colbern Road,Lee's Summit,MO,64086,(816) 358-7600,Ecom24026@toyota.com,https://www.adamstoyota.com
24059,Baldwin Toyota,801 S. Westwood Blvd.,Poplar Bluff,MO,63901,(573) 785-6484,Ecom24059@toyota.com,https://www.baldwintoyota.com
24080,McCarthy Toyota of Sedalia,3110 W Broadway,Sedalia,MO,65301,(660) 826-5400,Ecom24080@toyota.com,https://www.mccarthytoyotaofsedalia.com
24071,Reliable Toyota,3521 East Sunshine,Springfield,MO,65809,(417) 889-9000,Ecom24071@toyota.com,https://www.reliabletoyotamo.com
24036,Tom Pappas Toyota,10011 Spencer Road,St Peters,MO,63376,(636) 928-1212,Ecom24036@toyota.com,https://www.pappastoyota.com
24079,Rolling Hills Toyota,1617 Cross Street,St. Joseph,MO,64506,(816) 671-4500,Ecom24079@toyota.com,https://www.rollinghillstoyota.com
24063,Jerry Ackerman Toyota,2020 Hampton Avenue,St. Louis,MO,63139,(314) 351-3000,Ecom24063@toyota.com,https://www.ackermantoyota.com
24088,Victory Toyota of St. Louis,11771 Tesson Ferry Road,St. Louis,MO,63128,(314) 849-3700,,https://www.victorytoyotastlouis.com
24053,Seeger Toyota of St. Robert,169 St. Robert Blvd.,St. Robert,MO,65584,(573) 336-7111,andy@seegertoyota.com,https://www.seegertoyota.net
24052,Straatmann Toyota,215 George Hildner Drive,Washington,MO,63090,(636) 239-4775,Ecom24052@toyota.com,https://www.straatmanntoyota.com
23081,Gray-Daniels Toyota,104 Gray Daniels Blvd,Brandon,MS,39042,(601) 948-0576,,https://www.gray-danielstoyota.com
23082,Toyota of Brookhaven,890 Brookway Blvd.,Brookhaven,MS,39601,(601) 823-7000,,https://www.toyotaofbrookhaven.com
23061,Carl Hogan Toyota,3907 Highway 45 North,Columbus,MS,39705,(662) 241-6000,jtbreck@carlhogantoyota.com,https://www.carlhogantoyota.com
23071,Oakes Toyota,1753 Highway 1 South,Greenville,MS,38701,(662) 378-8101,internet@oakestoyota.com,https://www.oakestoyota.com
23057,Kirk Toyota,237 Southwest Frontage Road,Grenada,MS,38901,(662) 226-1181,internet@kirktoyota.com,https://www.kirktoyota.com
23052,J. Allen Toyota,11397 Helen Richards Road,Gulfport,MS,39503,(228) 896-8220,internet@allentoyota.com,https://www.jallentoyota.com
23035,Toyota of Hattiesburg,6461 US Highway 98,Hattiesburg,MS,39402,(601) 544-9630,internet@toyotahattiesburg.com,https://www.toyotahattiesburg.com
23079,Principle Toyota of Hernando,2887 McIngvale Road South,Hernando,MS,38632,(662) 624-2585,,https://www.principletoyotaofhernando.com
23083,Toyota of Jackson,6100 I-55 North Frontage Road,Jackson,MS,39211,(601) 956-9696,,https://www.toyotaofjackson.com
23062,Kim's Toyota,550 S. 16th Ave.,Laurel,MS,39440,(601) 425-4701,internet@kimstoyota.com,https://www.kimstoyota.com
23085,Toyota of Meridian,2900 Highway 39 North,Meridian,MS,39301,(601) 485-1620,,https://www.toyotaofmeridian.com
23084,Cannon Toyota of Moss Point,6521 Highway 63,Moss Point,MS,39563,(228) 762-3533,,https://www.cannontoyotamosspoint.com
23080,Natchez Toyota,335 Highway 61 South,Natchez,MS,39120,(601) 446-5588,,https://www.natcheztoyota.com
23054,Oxford Toyota,435A Highway 6 West,Oxford,MS,38655,(662) 234-4661,internet@oxfordtoyota.com,https://www.oxfordtoyota.com
23074,Doc's Toyota,15120 Highway 16 West,Philadelphia,MS,39350,(601) 781-8017,,https://www.docstoyota.com
23069,Carlock Toyota of Tupelo,882 Cross Creek Drive,Saltillo,MS,38866,(662) 842-6428,sybrazeal@carlockcars.com,https://www.carlocktoyotaoftupelo.com
23076,Cannon Toyota,2047 North Frontage Road,Vicksburg,MS,39180,(601) 636-2855,,https://www.cannontoyotavicksburg.com
25065,Lithia Toyota of Billings,1532 Grand Avenue,Billings,MT,59102,(406) 245-7141,Ecom25065@toyota.com,https://www.lithiatoyotabillings.com
25060,Toyota of Bozeman,8476 Huffine Lane,Bozeman,MT,59718,(406) 585-2002,Ecom25060@toyota.com,https://www.toyotaofbozeman.com
25067,Butte Toyota,5103 Harrison Avenue,Butte,MT,59701,(406) 782-9181,,https://www.buttetoyota.com
25056,City Toyota,3900 10th Avenue South,Great Falls,MT,59405,(406) 761-4900,Ecom25056@toyota.com,https://www.city-toyota.com
25068,Toyota of Helena,3365 Highway 12 East,Helena,MT,59601,(406) 442-6310,,https://www.toyotaofhelena.com
25064,Kalispell Toyota,2845 Highway 93 South,Kalispell,MT,59901,(406) 755-6060,Ecom25064@toyota.com,https://www.kalispelltoyota.com
25066,Lithia Toyota of Missoula,4001 Brooks St.,Missoula,MT,59804,(406) 532-1300,Ecom25066@toyota.com,https://www.lithiatoyotamissoula.com
32142,Hendrick Toyota Apex,1210 Laura Village Drive,Apex,NC,27523,(919) 335-1600,toyotascionofapex.cm._rw_hendrickauto.com@leads.gs.reyrey.com,https://www.hendricktoyotaapex.com
32155,Modern Toyota of Asheboro,1636 Highway 64 East,Asheboro,NC,27203,(336) 629-9148,,https://www.moderntoyotaofasheboro.com
32148,Fred Anderson Toyota of Asheville,777 Brevard Road,Asheville,NC,28806,(828) 667-8888,,https://www.ashevilletoyota.com
32141,Modern Toyota of Boone,225 Modern Drive,Boone,NC,28607,(828) 264-1491,sales@moderntoyotaofboone.com,https://www.moderntoyotaofboone.com
32015,Cox Toyota,3860 Danbrook Road,Burlington,NC,27215,(336) 226-6361,text@coxtoyota.com,https://www.coxtoyota.com
32126,Town & Country Toyota,9101 South Boulevard,Charlotte,NC,28273,(704) 552-7600,sales@towncountrytoyota.com,https://www.townandcountrytoyota.com
32146,Deacon Jones Toyota,1613 Sunset Avenue,Clinton,NC,28328,(910) 592-8951,,https://www.deaconjonestoyota.com
32106,Hendrick Toyota Concord,7670 Bruton Smith Blvd.,Concord,NC,28027,(704) 979-7700,text@toyotaofconcord.com,https://www.hendricktoyotaconcord.com
32154,Mark Jacobson Toyota,4516 Durham Chapel Hill Blvd.,Durham,NC,27707,(919) 493-5599,,https://www.markjacobsontoyota.com
32152,Hall Toyota Elizabeth City,1002 Halstead Blvd.,Elizabeth City,NC,27909,(252) 335-4301,,https://www.halltoyotaelizabethcity.com
32076,Rick Hendrick Toyota,1969 Skibo Road,Fayetteville,NC,28314,(910) 868-5071,rhtsales@hendrickauto.com,https://www.rickhendricktoyota.com
32139,Toyota of Gastonia,4821 Wilkinson Boulevard,Gastonia,NC,28056,(704) 824-7777,sales@toyotaofgastonia.com,https://www.toyotaofgastonia.com
32140,Toyota of Goldsboro,301 N. Oak Forest Road,Goldsboro,NC,27534,(919) 778-3232,text@toyotaofgoldsboro.com,https://www.toyotaofgoldsboro.com
32001,Toyota of Greensboro,2630 Battleground Avenue,Greensboro,NC,27408,(336) 288-1190,wecare@toyotaofgreensboro.com,https://www.toyotaofgreensboro.com
32118,Greenville Toyota,3615 South Memorial Drive,Greenville,NC,27834,(252) 321-3000,text@greenvilletoyota.com,https://www.greenvilletoyota.com
32115,Griffin Toyota,949 U.S. Highway 74 East,Hamlet,NC,28345,(910) 582-3300,text@griffintoyota.com,https://www.griffintoyota.com
32153,Classic Toyota of Henderson,205 Toyota Lane,Henderson,NC,27537,(252) 438-2181,,https://www.classictoyotahenderson.com
32113,Bryan Easler Toyota,1409 Spartanburg Highway,Hendersonville,NC,28792,(828) 693-7261,text@bryaneaslertoyota.com,https://www.bryaneaslertoyota.com
32129,Mike Johnson's Hickory Toyota,435 Highway 70 S.E.,Hickory,NC,28602,(828) 328-5586,sales@hickorytoyota.com,https://www.hickorytoyota.com
32082,Vann York Toyota,500 Eastchester Drive,High Point,NC,27262,(336) 885-9016,sales@vannyorktoyota.com,https://www.vannyorktoyota.com
32157,Toyota of North Charlotte,13429 Statesville Road,Huntersville,NC,28078,(704) 875-9199,,https://www.toyotaofnorthcharlotte.com
32150,Stevenson-Hendrick Toyota Jacksonville,3124 New Bern Highway,Jacksonville,NC,28546,(910) 937-1555,,https://www.stevensonhendricktoyota.com
32024,Massey Toyota,4760 Highway 70 West,Kinston,NC,28504,(252) 523-6111,sales@masseymotors.com,https://www.masseytoyota.com
32069,Peterson Toyota,4381 Fayetteville Road,Lumberton,NC,28359,(910) 738-5241,sales@petersontoyota.com,https://www.petersontoyota.com
32096,Scott Clark Toyota,13052 Marie Garris Drive,Matthews,NC,28105,(704) 535-1972,sales@scottclarkstoyota.com,https://www.scottclarkstoyota.com
32144,Mount Airy Toyota,508 N Andy Griffith Pkwy,Mount Airy,NC,27030,(336) 786-2118,,https://www.mountairytoyota.com
32134,Toyota of New Bern,5010 Highway 70 East,New Bern,NC,28560,(252) 637-7200,sales@toyotaofnewbern.com,https://www.toyotaofnewbern.com
32147,Classic Toyota of Wilkesboro,1511 West D Street,North Wilkesboro,NC,28659,(336) 667-1185,,https://www.classictoyotawilkesboro.com
32097,Fred Anderson Toyota,9101 Glenwood Avenue,Raleigh,NC,27617,(919) 787-0099,sales@fredandersontoyota.com,https://www.fredandersontoyota.com
32158,Leith Toyota,8005 Capital Blvd.,Raleigh,NC,27616,(919) 876-5900,,https://www.leithtoyota.com
32156,Toyota of Roanoke Rapids,1836 Premier Blvd.,Roanoke Rapids,NC,27870,(252) 537-6161,,https://www.toyotaofroanokerapids.com
32159,CMA's Rocky Mount Toyota,943 N. Wesleyan Blvd.,Rocky Mount,NC,27804,(252) 977-0224,,https://www.cmasrockymounttoyota.com
32110,Cloninger Toyota,511 Jake Alexander Blvd. South,Salisbury,NC,28147,(704) 755-6508,sales@cloningertoyota.com,https://www.cloningertoyota.com
32133,Fred Anderson Toyota of Sanford,3321 Highway 87 South,Sanford,NC,27332,(919) 708-5000,sales@fredandersontoyotaofsanford.com,https://www.toyotaofsanford.com
32125,Pinehurst Toyota,10760 US Highway 15-501,Southern Pines,NC,28387,(910) 692-2424,sales@pinehursttoyota.com,https://www.pinehursttoyota.com
32143,Flow Toyota of Statesville,997 Folger Drive,Statesville,NC,28625,(704) 872-2771,,https://www.flowtoyotaofstatesville.com
32131,Pecheles Ford Toyota,4020 Highway 264 West,Washington,NC,27889,(252) 975-1500,sales@pechelestoyota.com,https://www.pechelestoyota.com
32130,Hendrick Toyota Wilmington,5640 Market Street,Wilmington,NC,28405,(910) 791-9735,sales@toyotaofwilmington.com,https://www.toyotaofwilmington.com
32136,Hubert Vester Toyota of Wilson,3712 Raleigh Road Pkwy.,Wilson,NC,27896,(252) 291-5300,sales@toyotaofwilson.com,https://www.hubertvestertoyota.com
32111,Modern Toyota,3178 Peters Creek Parkway,Winston-Salem,NC,27127,(336) 785-3100,dealer.mail@setoyota.com,https://www.moderntoyota.com
33025,Cedric Theel Toyota,3955 Trenton Drive,Bismarck,ND,58503,(701) 223-2190,Ecom33025@toyota.com,https://www.cedrictheeltoyota.com
33017,Lake Toyota,424 Highway 2 East,Devils Lake,ND,58301,(701) 888-4019,Ecom33017@toyota.com,https://www.laketoyota.com
33024,Dan Porter Honda-Toyota,2391 E. I-94 Business LP,Dickinson,ND,58601,(701) 227-1272,Ecom33024@toyota.com,https://www.danportertoyota.com
33021,Corwin Toyota,222 South 40th Street,Fargo,ND,58103,(701) 282-8425,Ecom33021@toyota.com,https://www.corwintoyota.com
33031,Rydell Toyota of Grand Forks,2473 South 32nd Avenue,Grand Forks,ND,58201,(701) 787-6259,,https://www.rydelltoyota.com
33010,Lloyds Toyota,500 17th St SW,Jamestown,ND,58401,(701) 252-4690,Ecom33010@toyota.com,https://www.lloydstoyota.com
33032,Minot Toyota,3615 South Broadway,Minot,ND,58702,(701) 852-0151,,https://www.minottoyota.com
26031,Corwin Toyota of Bellevue,7851 S. 19th Circle,Bellevue,NE,68147,(402) 733-4445,,https://www.corwintoyotaofbellevue.com
26032,Gregg Young Toyota of Columbus,815 East 23rd Street,Columbus,NE,68601,(402) 562-8698,,https://www.greggyoungtoyotacolumbus.com
26033,Woodhouse Toyota,3510 Kaufman,Grand Island,NE,68803,(308) 382-4620,Sales-WH19-Toyota@woodhouse.com,https://www.woodhousetoyota.com
26021,Baxter Toyota of La Vista,7204 S. 124th Circle,La Vista,NE,68128,(402) 731-2000,Ecom26021@toyota.com,https://www.toyotaoflavista.com
26024,Baxter Toyota of Lincoln,8600 South 33rd Street,Lincoln,NE,68516,(402) 476-4000,Ecom26024@toyota.com,https://www.toyotaoflincoln.com
26027,Wagner Toyota,211 West 2nd Street,McCook,NE,69001,(308) 345-2350,tricia@drivewagner.com,https://www.wagnertoyota.com
26023,Premier Toyota,2600 S Willow & I-80,North Platte,NE,69103,(308) 532-8400,Ecom26023@toyota.com,https://www.premierautoplex.com
26030,Village Pointe Toyota,18201 Cuming Street,Omaha,NE,68022,(402) 496-4444,Ecom26030@toyota.com,https://www.villagepointetoyota.com
26029,Team Toyota,2014 E. 20th Place,Scottsbluff,NE,69361,(308) 632-2173,Ecom26029@toyota.com,https://www.teamtoyotascottsbluff.com
28045,McGovern Toyota of Concord,594 Route 3-A,Bow,NH,03304,(603) 805-2400,,https://www.mcgoverntoyotaofconcord.com
28039,McGee Toyota of Claremont,168 Charlestown Road,Claremont,NH,03743,(603) 542-5181,,https://www.mcgeetoyotaofclaremont.com
28021,Bill Dube Toyota,40 Dover Point Road,Dover,NH,03820,(603) 749-5500,Ecom28021@toyota.com,https://www.billdubetoyota.com
28029,Toyota of Keene,591 Monadnock Hwy. Rt 12,East Swanzey,NH,03446,(603) 354-5000,Ecom28029@toyota.com,https://www.toyotakeene.com
28040,McGee Toyota of Epping,58 Calef Highway,Epping,NH,03042,(603) 693-1010,,https://www.mcgeetoyotaofepping.com
28044,Ecodrive Toyota of Gorham,485 Main Street,Gorham,NH,03581,(603) 752-6644,,https://www.ecodrivetoyotaofgorham.com
28024,Irwin Toyota,59 Bisson Avenue,Laconia,NH,03246,(603) 524-4922,Ecom28024@toyota.com,https://www.irwinzonetoyota.com
28036,Ira Toyota of Manchester,33 Autocenter Road,Manchester,NH,03103,(603) 624-1800,Ecom28036@toyota.com,https://www.toyotaofmanchesternh.com
28038,Toyota of Nashua,10 Marmon Drive,Nashua,NH,03060,(603) 888-3555,,https://www.toyotaofnashua.com
28043,McGovern Toyota of Portsmouth,150 Greenleaf Avenue,Portsmouth,NH,03801,(603) 431-6100,mbarker@mcgovernauto.com,https://www.mcgoverntoyotaofportsmouth.com
28042,Rochester Toyota,48 Farmington Rd-Route 11 West,Rochester,NH,03867,(603) 332-5131,sales@rochestertoyot.net,https://www.rochestertoyota.net
28041,Canobie Lake Toyota,412 S. Broadway,Salem,NH,03079,(603) 893-3525,rarey@canobielakeauto.com,https://www.canobielaketoyota.com
29075,Sansone Toyota,100 Route 1 North,Avenel,NJ,07001,(732) 587-1100,Ecom29075@toyota.com,https://www.sansonestoyota.com
29071,Liberty Toyota,4397 South Route 130,Burlington,NJ,08016,(609) 386-6300,Ecom29071@toyota.com,https://www.libertytoyota.com
29114,Toyota World of Clinton,2017 Route 31,Clinton,NJ,08809,(908) 638-4100,customercare@Toyotaworldclinton.com,https://www.toyotaworldclinton.com
29101,Dayton Toyota,2291 Route 130,Dayton,NJ,08810,(732) 329-9191,Ecom29101@toyota.com,https://www.daytontoyota.com
29031,Galaxy Toyota,750 Route 36,Eatontown,NJ,07724,(732) 544-1000,Ecom29031@toyota.com,https://www.galaxytoyota.net
29008,Parkway Toyota,50 Sylvan Avenue,Englewood Cliffs,NJ,07632,(201) 944-3300,Ecom29008@toyota.com,https://www.parkwaytoyota.com
29037,"Glen Motors, Inc.",23-07 Maple Avenue,Fair Lawn,NJ,07410,(201) 791-3800,Ecom29037@toyota.com,https://www.glentoyota.com
29104,Fred Beans Toyota of Flemington,174 Route 202 North,Flemington,NJ,08822,(908) 788-5700,Ecom29104@toyota.com,https://www.fredbeanstoyota.com
29105,DCH Freehold Toyota,4268 Route 9 South,Freehold,NJ,07728,(732) 431-1300,acerillo@dchusa.com,https://www.dchfreeholdtoyota.com
29115,Empire Toyota of Green Brook,220 Route 22 West,Green Brook,NJ,08812,(732) 968-1000,lsayette@eagny.com,https://www.shopempiretoyotaofgreenbrook.com
29025,Toyota of Hackensack,278 River Street,Hackensack,NJ,07601,(201) 488-7777,Ecom29025@toyota.com,https://www.toyotaofhackensack.com
29083,Route 22 Toyota,109 Route 22 West,Hillside,NJ,07205,(973) 705-9400,Ecom29083@toyota.com,https://www.route22toyota.com
29090,Hudson Toyota,599 Route 440,Jersey City,NJ,07304,(201) 862-7579,Ecom29090@toyota.com,https://www.hudsontoyota.com
29095,Toyota World of Lakewood,1118 Route 88,Lakewood,NJ,08701,(732) 364-9000,Ecom29095@toyota.com,https://www.lakewoodtoyota.com
29073,Team Toyota of Princeton,2871 Route 1,Lawrenceville,NJ,08648,(609) 883-4200,Ecom29073@toyota.com,https://www.teamtoyotaprinceton.com
29058,Towne Toyota,1499 Route 46,Ledgewood,NJ,07852,(973) 584-8100,Ecom29058@toyota.com,https://www.townetoyota.com
29078,Toyota Universe,1485 Route 46 East,Little Falls,NJ,07424,(973) 785-4710,Ecom29078@toyota.com,https://www.toyotauniverse.com
29069,Shore Toyota,4236 Black Horse Pike,Mays Landing,NJ,08330,(609) 645-2770,shore@shoretoyota.com,https://www.shoretoyota.com
29059,Toyota of Morristown,169 Ridgedale Ave,Morristown,NJ,07960,(973) 540-1111,Ecom29059@toyota.com,https://www.toyotaofmorristown.com
29102,Holman Toyota,1301 Route 73,Mount Laurel,NJ,08054,(856) 866-2000,Ecom29102@toyota.com,https://www.holmantoyota.com
29100,Toyota World of Newton,66 Route 206 North,Newton,NJ,07860,(973) 383-0200,Ecom29100@toyota.com,https://www.newtontoyota.com
29106,DCH Brunswick Toyota,1504 U.S. Route 1,North Brunswick,NJ,08902,(732) 418-8888,,https://www.dchbrunswicktoyota.com
29081,Crestmont Toyota,730 State Route 23,Pompton Plains,NJ,07444,(973) 839-2500,Ecom29081@toyota.com,https://www.crestmonttoyota.com
29113,Prestige Toyota of Ramsey,1096 Route 17 North,Ramsey,NJ,07446,(201) 825-2700,,https://www.prestigetoyota.com
29062,Toyota of Runnemede,99 South Black Horse Pike,Runnemede,NJ,08078,(856) 939-3400,Ecom29062@toyota.com,https://www.toyotaofrunnemede.com
29108,Autoland Toyota,170 Route 22 East,Springfield,NJ,07081,(973) 467-6101,,https://www.1800toyotaland.com
29092,Gateway Toyota,395 Rt 37E & Batchelor St,Toms River,NJ,08753,(732) 240-2000,Ecom29092@toyota.com,https://www.gatewaytoyota.com
29099,Toyota of Turnersville,3400 Route 42,Turnersville,NJ,08012,(856) 728-5000,Ecom29099@toyota.com,https://www.toyotaofturnersville.com
29086,Toyota of Vineland,650 North Delsea Drive,Vineland,NJ,08360,(856) 696-5900,Ecom29086@toyota.com,https://www.toyotaofvineland.com
29107,Paul Miller Toyota,1137-1183 Bloomfield Avenue,West Caldwell,NJ,07006,(973) 882-1822,jberrios@paulmillertoyota.com,https://www.paulmillertoyota.com
29103,East Coast Toyota,85 State Highway 17,Wood Ridge,NJ,07075,(201) 939-9400,Ecom29103@toyota.com,https://www.eastcoasttoyota.com
30051,Casa Toyota,3333 N. White Sands Blvd.,Alamogordo,NM,88310,(575) 437-7530,,https://www.casatoyotanm.com
30050,Group 1 Toyota Albuquerque,"10401 Copper Avenue, N.E.",Albuquerque,NM,87123,(505) 294-8800,tammyburns@sandiatoyota.com,https://www.group1toyotaalbuquerque.com
30049,Larry H. Miller American Toyota Albuquerque,5995 Alameda Blvd. N.E.,Albuquerque,NM,87113,(505) 823-4440,,https://www.americantoyota.com
30046,Hamilton Toyota,600 W. 7th Street,Clovis,NM,88101,(575) 762-4551,toyota@hamiltonauto.com,https://www.hamilton-toyota.com
30032,Webb Toyota,3701 E. Main Street,Farmington,NM,87402,(505) 327-5900,grant@webbauto.com,https://www.webbtoyota.com
30036,Amigo Toyota,2010 S. 2nd Street,Gallup,NM,87301,(505) 722-3881,Ecom30036@toyota.com,https://www.amigotoyota.com
30048,Viva Toyota of Las Cruces,780 South Valley Drive,Las Cruces,NM,88005,(575) 523-5566,jamie_dick@fiestaautogroup.com,https://www.vivatoyotaoflascruces.com
30041,Roswell Toyota,2211 West Second Street,Roswell,NM,88201,(575) 622-5860,Ecom30041@toyota.com,https://www.roswelltoyota.com
30044,Toyota of Santa Fe,1601 St. Michaels Drive,Santa Fe,NM,87505,(505) 982-1901,edvin.jonoubeh@toyotaofsantafe.com,https://www.toyotaofsantafe.com
30047,Hatch Toyota Stateline,2750 Highway 180 E.,Silver City,NM,88061,(575) 538-3777,,https://www.hatchtoyotastateline.com
27015,Carson City Toyota,2590 South Carson Street,Carson City,NV,89701,(775) 882-8211,Ecom27015@toyota.com,https://www.carsoncitytoyota.com
27023,Elko Toyota,1585 Lamoille Hwy.,Elko,NV,89801,(775) 777-2277,,https://www.elkotoyota.com
27016,Fallon Ford Toyota,1351 W. Williams Avenue,Fallon,NV,89406,(775) 423-2171,Ecom27016@toyota.com,https://www.fallontoyota.com
27020,Findlay Toyota,7733 Eastgate Road,Henderson,NV,89011,(702) 566-2000,Ecom27020@toyota.com,https://www.findlaytoyota.com
27021,AutoNation Toyota Las Vegas,6300 West Sahara Avenue,Las Vegas,NV,89146,(702) 605-5801,Ecom27021@toyota.com,https://www.autonationtoyotalasvegas.com
27022,Centennial Toyota,6401 Centennial Center Blvd.,Las Vegas,NV,89149,(702) 942-3800,Ecom27022@toyota.com,https://www.centennialtoyota.com
27024,David Wilson's Toyota of Las Vegas,3255 East Sahara Avenue,Las Vegas,NV,89104,(702) 457-2000,,https://www.dwtoyotalasvegas.com
27013,Dolan Toyota,2100 Kietzke Lane,Reno,NV,89502,(775) 826-2750,Ecom27013@toyota.com,https://www.dolanrenotoyota.com
31176,Interstate Toyota,411 Route 59,Airmont,NY,10952,(845) 352-6200,Ecom31176@toyota.com,https://www.interstatetoyota.net
31068,Northtown Toyota,1135 Millersport Highway,Amherst,NY,14226,(716) 836-4600,Ecom31068@toyota.com,https://www.northtowntoyota.com
31194,Fox Toyota,188 Grant Avenue,Auburn,NY,13021,(315) 253-7341,,https://www.fox-toyota.com
31167,Toyota of Batavia,3899 West Main Street Road,Batavia,NY,14020,(585) 344-4141,Ecom31167@toyota.com,https://www.toyotaofbatavia.com
31144,Star Toyota of Bayside,205-11 Northern Blvd.,Bayside,NY,11361,(718) 279-1800,Ecom31144@toyota.com,https://www.startoyota.com
31201,Williams Toyota of Binghamton,393 Court Street,Binghamton,NY,13904,(607) 724-1334,,https://www.williamstoyotaofbinghamton.com
31189,Lia Toyota of Rockland,618 Route 303,Blauvelt,NY,10913,(845) 358-2220,,https://www.liatoyotaofrockland.com
31161,City World Toyota,3333 Boston Road,Bronx,NY,10469,(718) 655-7000,Ecom31161@toyota.com,https://www.cityworldtoyota.com
31121,Fordham Toyota,236-240 W. Fordham Road,Bronx,NY,10468,(718) 367-0400,Ecom31121@toyota.com,https://www.fordhamtoyota.com
31156,Plaza Toyota,2721 Nostrand Avenue,Brooklyn,NY,11210,(718) 253-8400,Ecom31156@toyota.com,https://www.plazatoyota.com
31204,Toyota of Bay Ridge Brooklyn,6401 6th Avenue,Brooklyn,NY,11220,(718) 439-7888,,https://www.toyotaofbayridge.com
31088,Burdick Toyota,5947 East Circle Drive,Cicero,NY,13039,(315) 458-7590,Ecom31088@toyota.com,https://www.burdicktoyota.com
31172,Curry Toyota,3026 E. Main Street,Cortlandt Manor,NY,10567,(914) 528-4347,Ecom31172@toyota.com,https://www.currytoyota.com
31115,Romano Toyota,6400 Basile Rowe,East Syracuse,NY,13057,(315) 445-1071,Ecom31115@toyota.com,https://www.romanotoyota.com
31182,Williams Toyota of Elmira,1074 County Route 64,Elmira,NY,14903,(607) 796-9600,,https://www.williamstoyotaofelmira.com
31113,Gault Toyota,2205 North Street,Endicott,NY,13760,(607) 748-8244,Ecom31113@toyota.com,https://www.gaulttoyota.com
31196,Romeo Toyota of Glens Falls,163-169 Broad Street,Glens Falls,NY,12801,(518) 793-5611,,https://www.romeotoyotaofglensfalls.com
31203,Maguire Toyota of Grand Island,1974 Alvin Road,Grand Island,NY,14072,(716) 773-7505,asweet@maguirecars.com,https://www.maguiretoyotaofgrandisland.com
31076,Penn Toyota,2400 Northern Blvd.,Greenvale,NY,11548,(516) 621-8600,Ecom31076@toyota.com,https://www.penntoyota.com
31154,Millennium Toyota,257 North Franklin Street,Hempstead,NY,11550,(516) 485-1400,Ecom31154@toyota.com,https://www.millenniumtoyota.com
31024,Kinderhook Toyota,1908 State Route 9H,Hudson,NY,12534,(518) 822-9911,Ecom31024@toyota.com,https://www.kinderhooktoyota.com
31179,Empire Toyota of Huntington,1030 East Jericho Turnpke,Huntington Station,NY,11746,(631) 498-8302,Ecom31179@toyota.com,https://www.shopempiretoyota.com
31177,Maguire Toyota,370 Elmira Road,Ithaca,NY,14850,(607) 257-1515,Ecom31177@toyota.com,https://www.maguiretoyota.com
31192,Hillside Toyota,139-65 Queens Boulevard,Jamaica,NY,11435,(718) 657-2220,,https://www.hillsidetoyota.nyc
31174,Steet Toyota of Johnstown-Gloversville,310 North Comrie Avenue,Johnstown,NY,12095,(518) 762-7222,Ecom31174@toyota.com,https://www.steettoyotajohnstown.com
31112,Prestige Toyota,756 E. Chester St By-Pass,Kingston,NY,12401,(845) 339-3313,Ecom31112@toyota.com,https://www.prestigetoyota-ny.com
31141,Luv Toyota,215 East Fairmount Avenue,Lakewood,NY,14750,(716) 763-3300,Ecom31141@toyota.com,https://www.luvtoyota.com
31188,Northway Toyota,737 New Loudon Road,Latham,NY,12110,(518) 783-1951,,https://www.northwaytoyota.com
31165,Basil Toyota,6157 South Transit Road,Lockport,NY,14094,(716) 625-8444,Ecom31165@toyota.com,https://www.basiltoyota.com
31195,Toyota City,1305 East Boston Post Rd.,Mamaroneck,NY,10543,(914) 998-1000,,https://www.toyotacityny.com
31132,New Country Toyota of Clifton Park,202 Route 146,Mechanicville,NY,12118,(518) 664-4444,Ecom31132@toyota.com,https://www.toyotaofcliftonpark.com
31190,Sunrise Toyota North,910 Middle Country Road,Middle Island,NY,11953,(631) 924-8100,,https://www.sunrisetoyotanorth.com
31185,Rivera Toyota of Mt. Kisco,325 N. Bedford Road,Mt. Kisco,NY,10549,(914) 666-5181,,https://www.riveratoyota.com
31011,Johnstons Toyota,5021 Route 17M,New Hampton,NY,10958,(845) 374-8600,Ecom31011@toyota.com,https://www.johnstonstoyota.com
31135,New Rochelle Toyota,47 Cedar Street,New Rochelle,NY,10801,(914) 576-8000,Ecom31135@toyota.com,https://www.newrochelletoyota.com
31162,Toyota of Manhattan,677-681 11th Avenue,New York,NY,10019,(212) 399-9600,Ecom31162@toyota.com,https://www.toyotaofmanhattan.com
31171,Newburgh Toyota,218 Route 17K,Newburgh,NY,12550,(845) 561-0340,Ecom31171@toyota.com,https://www.newburghtoyota.com
31178,Sunrise Toyota,3984 Sunrise Highway,Oakdale,NY,11769,(631) 589-9000,Ecom31178@toyota.com,https://www.sunrisetoyota.com
31202,Nye Toyota,1441 Genesee Street,Oneida,NY,13421,(315) 363-1000,,https://www.nyetoyota.com
31124,Empire Toyota,6281 State Highway 23,Oneonta,NY,13820,(607) 433-0045,Ecom31124@toyota.com,https://www.empiretoyota.com
31160,West Herr Toyota of Orchard Park,4141 Southwestern Blvd.,Orchard Park,NY,14127,(716) 648-4141,Ecom31160@toyota.com,https://www.toyotaorchardpark.com
31180,Della Toyota,32 Della Drive,Plattsburgh,NY,12901,(518) 563-4131,Ecom31180@toyota.com,https://www.dellatoyota.com
31139,Riverhead Toyota,1655 Old Country Road,Riverhead,NY,11901,(631) 727-7722,Ecom31139@toyota.com,https://www.riverheadtoyota.com
31200,Bob Johnson Toyota,3399 West Henrietta Road,Rochester,NY,14623,(585) 475-1700,mail@bobjohnsonauto.com,https://www.bobjohnsontoyota.com
31198,West Herr Toyota of Rochester,4374 Ridge Road West,Rochester,NY,14626,(585) 225-6600,,https://www.westherrtoyotarochester.com
31116,New Country Toyota of Saratoga Springs,3002 Route 50,Saratoga Springs,NY,12866,(518) 584-7272,mfountain@newcountry.com,https://www.toyotaofsaratogasprings.com
31119,Lia Toyota of Colonie,"2116 Central Ave., Rte. 5",Schenectady,NY,12304,(518) 374-3700,Ecom31119@toyota.com,https://www.liatoyotaofcolonie.com
31191,Toyota of Massapequa,3660 Sunrise Highway,Seaford,NY,11783,(516) 217-1400,,https://www.toyotaofmassapequany.com
31105,Smithtown Toyota,360 East Jericho Turnpike,Smithtown,NY,11787,(631) 724-3300,Ecom31105@toyota.com,https://www.smithtowntoyota.com
31186,Island Toyota,1591 Hylan Boulevard,Staten Island,NY,10305,(718) 874-8888,asciascia@islandtoyota.com,https://www.islandtoyota.com
31173,Advantage Toyota,400 Sunrise Highway,Valley Stream,NY,11581,(516) 887-8600,Ecom31173@toyota.com,https://www.advantagetoyotany.com
31183,DCH Wappingers Falls Toyota,1349 Route 9,Wappingers Falls,NY,12590,(845) 298-8880,,https://www.dchwappingerstoyota.com
31019,Waite Toyota,18406 US Route 11,Watertown,NY,13601,(315) 788-6022,Ecom31019@toyota.com,https://www.waitetoyota.com
31166,Atlantic Toyota,207 Sunrise Highway,West Islip,NY,11795,(631) 789-2700,Ecom31166@toyota.com,https://www.atlantictoyotany.com
31181,Westbury Toyota,1121 Old Country Road,Westbury,NY,11590,(516) 333-3100,Ecom31181@toyota.com,https://www.westburytoyota.com
31175,West Herr Toyota of Williamsville,8129 Main Street,Williamsville,NY,14221,(716) 250-5500,mgarriagan@westherr.com,https://www.toyotawilliamsville.com
31039,Queensboro Toyota,62-10 Northern Boulevard,Woodside,NY,11377,(718) 335-8600,Ecom31039@toyota.com,https://www.queensborotoyota.com
31138,Westchester Toyota,2167 Central Park Avenue,Yonkers,NY,10710,(914) 779-8700,fgreco@westchestertoyota.com,https://www.westchestertoyota.com
31142,Steet Toyota,4991 Commercial Drive,Yorkville,NY,13495,(315) 736-8241,Ecom31142@toyota.com,https://www.steettoyota.com
34109,Ken Ganley Toyota Akron,1395 East Market Street,Akron,OH,44305,(330) 733-7511,Ecom34109@toyota.com,https://www.kenganleytoyotaakron.com
34124,Summit Toyota of Akron,1535 Vernon Odom Blvd.,Akron,OH,44320,(330) 836-2500,Ecom34124@toyota.com,https://www.summittoyotaofakron.com
34142,Premier Toyota of Amherst,47190 Cooper Foster Park Road,Amherst,OH,44001,(440) 985-6100,,https://www.premiertoyota.com
34101,Don Wood Toyota,900 East State Street,Athens,OH,45701,(740) 593-6641,Ecom34101@toyota.com,https://www.donwoodtoyota.com
34136,Victory Toyota of Ashtabula County,2972 GH Drive,Austinburg,OH,44010,(440) 576-1010,,https://www.victorytoyota440.com
34096,Voss Toyota,2110 Heller Drive,Beavercreek,OH,45434,(937) 427-3700,Ecom34096@toyota.com,https://www.vosstoyota.com
34118,Toyota of Bedford,18151 Rockside Road,Bedford,OH,44146,(440) 439-8600,Ecom34118@toyota.com,https://www.toyotaofbedford.com
34122,Toyota of Boardman,8250 Market Street,Boardman,OH,44512,(330) 729-9080,Ecom34122@toyota.com,https://www.toyotaofboardman.com
34092,Thayer Toyota,1225 North Main Street,Bowling Green,OH,43402,(419) 353-5751,Ecom34092@toyota.com,https://www.thayertoyota.com
34141,Victory Toyota of Brook Park,13775 Brookpark Road,Brook Park,OH,44142,(216) 267-7000,,https://www.victorytoyotabrookpark.com
34090,Brunswick Toyota,3041 Center Road,Brunswick,OH,44212,(330) 273-3300,Ecom34090@toyota.com,https://www.brunswickautomarttoyota.com
34099,Nourse Toyota,423 N. Bridge Street,Chillicothe,OH,45601,(740) 773-7913,Ecom34099@toyota.com,https://www.noursetoyota.com
34078,Beechmont Toyota,8667 Beechmont Avenue,Cincinnati,OH,45255,(513) 388-3800,Ecom34078@toyota.com,https://www.beechmonttoyota.com
34089,Joseph Toyota of Cincinnati,9101 Colerain Avenue,Cincinnati,OH,45251,(513) 385-1800,Ecom34089@toyota.com,https://www.josephtoyota.com
34085,Kings Toyota,4700 Fields Ertel Road,Cincinnati,OH,45249,(513) 683-5440,Ecom34085@toyota.com,https://www.kingstoyota.com
34137,Toyota Cleveland Heights,2950 Mayfield Road,Cleveland Hts,OH,44118,(216) 321-9100,partsmanager@toyotaclevelandheights.com,https://www.toyotaclevelandheights.com
34041,Germain Toyota of Columbus,5711 Scarborough Blvd.,Columbus,OH,43232,(614) 868-0300,Ecom34041@toyota.com,https://www.germaintoyota.net
34070,Toyota Direct,4248 Morse Road,Columbus,OH,43230,(614) 476-1979,Ecom34070@toyota.com,https://www.toyotadirect.com
34129,Toyota West,1500 Auto Mall Drive,Columbus,OH,43228,(614) 870-8200,,https://www.toyotawest.com
34120,Byers Toyota,1599 Columbus Pike,Delaware,OH,43015,(740) 368-7666,Ecom34120@toyota.com,https://www.byerstoyota.com
34025,Tansky Sawmill Toyota,6300 Sawmill Road,Dublin,OH,43017,(614) 766-4800,Ecom34025@toyota.com,https://www.tanskysawmilltoyota.com
34044,Performance Toyota,5676 Dixie Highway,Fairfield,OH,45014,(513) 874-8797,Ecom34044@toyota.com,https://www.performancetoyotastore.com
34132,Great Lakes Toyota,920 Plaza Street,Findlay,OH,45840,(419) 423-5656,,https://www.glakestoyota.com
34102,Coughlin Toyota,2360 Hebron Road,Heath,OH,43056,(740) 929-9000,Ecom34102@toyota.com,https://www.coughlintoyota.com
34133,Toyota of Kent,1111 West Main Street,Kent,OH,44240,(330) 673-2200,,https://www.toyotaofkent.com
34125,Buckeye Toyota,1903 Riverway Drive,Lancaster,OH,43130,(740) 654-3943,GM34125@toyota.com,https://www.mybuckeyetoyota.com
34130,White's Toyota of Lima,3500 Elida Road,Lima,OH,45807,(419) 331-0381,,https://www.whitestoyotalima.com
34050,Graham Toyota,1515 West Fourth Street,Mansfield,OH,44906,(419) 529-1800,Ecom34050@toyota.com,https://www.grahamtoyota.com
34139,Victory Toyota Marietta,1305 Pike Street,Marietta,OH,45750,(740) 373-2928,,https://www.victorytoyotamarietta.com
34080,McDaniel Toyota,1111 Mt. Vernon Avenue,Marion,OH,43302,(740) 389-2355,Ecom34080@toyota.com,https://www.mcdanieltoyota.com
34126,Yark Toyota,1377 Conant Street,Maumee,OH,43537,(419) 893-5000,,https://www.yarktoyota.com
34093,Classic Toyota,8510 Tyler Blvd.,Mentor,OH,44060,(440) 953-0910,Ecom34093@toyota.com,https://www.driveclassictoyota.com
34144,South Dayton Toyota,8457 N Springboro Pike,Miamisburg,OH,45342,(937) 433-4950,,https://www.southdaytontoyota.com
34104,Ferris Toyota,"634 Wabash Avenue, N.W.",New Philadelphia,OH,44663,(330) 343-7761,Ecom34104@toyota.com,https://www.ferristoyota.com
34138,Toyota of North Canton,6527 Whipple Avenue NW,North Canton,OH,44720,(330) 494-8855,toyotaofnorthcanton@crm.eautodealerhub.com,https://www.toyotaofnorthcanton.com
34135,Westside Toyota,27000 Lorain Road,North Olmsted,OH,44070,(440) 777-9911,price@fivestaronline.net,https://www.westsidetoyota.com
34064,Glockner Toyota,2867 U.S. Route 23,Portsmouth,OH,45662,(740) 354-3255,Ecom34064@toyota.com,https://www.glocknertoyota.com
34128,Firelands Toyota,904 E. Strub Road,Sandusky,OH,44870,(419) 621-0600,,https://www.firelandstoyota.com
34116,Jeff Wyler Toyota of Springfield,2237 West First Street,Springfield,OH,45504,(937) 325-4601,Ecom34116@toyota.com,https://jeffwylerspringfieldtoyota.net
34098,Team Toyota,905 Brady Avenue,Steubenville,OH,43952,(740) 283-4131,Ecom34098@toyota.com,https://www.teamtoyotaohio.com
34026,Jim White Toyota,6123 West Central Avenue,Toledo,OH,43615,(419) 841-6681,Ecom34026@toyota.com,https://www.jimwhitetoyota.com
34077,Joseph Airport Toyota,1180 W National Road,Vandalia,OH,45377,(937) 898-8060,Ecom34077@toyota.com,https://www.josephairporttoyota.com
34143,Toyota of Warren,2657 Niles-Cortland Road,Warren,OH,44484,(330) 369-1678,,https://www.toyotaofwarren.com
34127,SVG Toyota,1132 State Route 41 South,Washington Court House,OH,43160,(740) 333-3860,,https://www.svgtoyota.com
34140,Firelands Toyota of Wooster,1363 W. Old Lincoln Way,Wooster,OH,44691,(330) 264-1113,,https://www.firelandstoyotawooster.com
34131,Zanesville Toyota,3260 North Maple Avenue,Zanesville,OH,43701,(740) 454-2512,,https://www.zanesvilletoyota.com
35074,Four Stars Toyota,2600 E. Broadway,Altus,OK,73521,(580) 482-3814,,https://www.fourstarstoyota.com
35065,Toyota of Ardmore,402 Holiday Drive,Ardmore,OK,73401,(580) 223-8495,internet@toyotaofardmore.com,https://www.toyotaofardmore.com
35011,Doenges Toyota,1911 SE Washington Blvd,Bartlesville,OK,74006,(918) 333-0900,internet@doengestoyota.com,https://www.doengestoyota.com
35048,Northcutt Toyota,3409 W. Owen K. Garriott Road,Enid,OK,73703,(580) 234-5171,internet@northcutttoyota.com,https://www.northcutttoyota.com
35076,SouthWest Toyota of Lawton,7110 NW Quanah Parker Trailway,Lawton,OK,73505,(580) 355-7223,,https://www.southwesttoyota.com
35075,Post Oak Toyota,5800 Tinker Diagonal,Midwest City,OK,73110,(405) 741-4451,,https://www.postoaktoyota.com
35061,James Hodge Toyota,2314 West Shawnee,Muskogee,OK,74401,(918) 687-1234,internet@toyotaofmuskogee.com,https://www.hodgetoyota.com
35025,Fowler Toyota,4050 N. Interstate Drive,Norman,OK,73072,(800) 375-9550,internet@fowlertoyota.com,https://www.fowlertoyota.com
35055,Bob Howard Toyota,12929 North Kelley Avenue,Oklahoma City,OK,73131,(405) 936-8600,internet@bobhowardtoyota.com,https://www.bobhowardtoyota.com
35072,Jim Norton Toyota of Oklahoma City,8401 Northwest Expressway,Oklahoma City,OK,73162,(405) 721-1911,,https://www.jimnortontoyotaokc.com
35052,Janzen Toyota,4900 West 6th Street,Stillwater,OK,74074,(405) 372-4550,internet@janzentoyota.com,https://www.janzentoyota.com
35071,Fowler Toyota of Tulsa,6868 East BA Frontage Road,Tulsa,OK,74145,(918) 836-2769,,https://www.fowlertoyotatulsa.com
35049,Jim Norton Toyota,9809 South Memorial Drive,Tulsa,OK,74133,(918) 250-6888,internet@jimnortontoyota.com,https://www.jimnortontoyota.com
36108,Albany Toyota,1205 Price Road SE,Albany,OR,97321,(541) 926-4236,,https://www.albanytoyota.net
36047,Beaverton Toyota,4300 SW Murray Blvd.,Beaverton,OR,97005,(503) 626-7200,leads@beavertontoyota.org,https://www.beavertontoyota.com
36096,Kendall Toyota of Bend,61430 S. Hwy 97,Bend,OR,97702,(541) 382-4040,,https://www.toyotaofbend.com
36094,Toyota of Corvallis,800 N.W. Fifth Street,Corvallis,OR,97330,(541) 754-1515,,https://www.toyotaofcorvallis.com
36085,Kendall Toyota,373 Goodpasture Island Road,Eugene,OR,97401,(541) 344-5566,Ecom36085@toyota.com,https://www.kendalltoyotaofeugene.com
36106,Toyota of Gladstone,19375 SE McLoughlin Blvd.,Gladstone,OR,97027,(503) 722-4800,,https://www.toyotaofgladstone.com
36099,Grants Pass Toyota,375 Redwood Highway,Grants Pass,OR,97527,(541) 476-6858,yourfriends@grantspasstoyota.com,https://www.grantspasstoyota.com
36102,Gresham Toyota,950 N.E. Hogan Drive,Gresham,OR,97030,(503) 667-1135,heatherj@greshamtoyota.com,https://www.greshamtoyota.com
36095,Rogers Toyota of Hermiston,80364 N. Highway 395,Hermiston,OR,97838,(541) 567-6461,,https://www.toyotaofhermiston.com
36078,Royal Moore Toyota,1415 S.E. River Road,Hillsboro,OR,97123,(503) 648-3213,Ecom36078@toyota.com,https://www.royalmooretoyota.com
36080,Lithia Toyota of Klamath Falls,2121 Washburn Way,Klamath Falls,OR,97603,(541) 275-7100,Ecom36080@toyota.com,https://www.klamathfallstoyota.com
36105,Damian Lillard Toyota,3142 NE Doran Drive,McMinnville,OR,97128,(503) 472-4657,questions@lillardtoyota.com,https://www.damianlillardtoyota.com
36052,Lithia Toyota,1420 N. Riverside Avenue,Medford,OR,97501,(541) 618-4800,Ecom36052@toyota.com,https://www.lithiatoyotamedford.com
36084,Hometown Toyota,313 SE 13th Street,Ontario,OR,97914,(541) 889-3151,Ecom36084@toyota.com,https://www.hometowntoyota.com
36100,Ron Tonkin Toyota,750 SE 122nd Avenue,Portland,OR,97233,(503) 255-0177,,https://www.tonkintoyota.com
36097,Toyota of Portland on Broadway,55 NE Broadway Street,Portland,OR,97232,(503) 284-1105,,https://www.toyotaofportland.com
36049,Capitol Toyota of Salem,783 Auto Group Avenue N.E.,Salem,OR,97301,(503) 399-1011,Ecom36049@toyota.com,https://www.captoyota.com
36079,Lithia Toyota of Springfield,163 S. 9th Street,Springfield,OR,97477,(541) 747-3374,Ecom36079@toyota.com,https://www.lithiatoyotaspringfield.com
36104,Columbia Gorge Toyota,1900 West 6th Street,The Dalles,OR,97058,(541) 296-2271,acarter@cgmtd.com,https://www.columbiagorgetoyota.com
36103,Wilsonville Toyota,9155 Boeckman Road,Wilsonville,OR,97070,(503) 582-9040,,https://www.wilsonvilletoyota.com/
37067,Bennett Toyota,1951 Lehigh Street,Allentown,PA,18103,(610) 437-6711,Ecom37067@toyota.com,https://www.bennetttoyotapa.com
37066,Ardmore Toyota,219 E. Lancaster Avenue,Ardmore,PA,19003,(610) 645-5000,sales@ardmoretoyota.com,https://www.ardmoretoyota.com
37197,LUV Toyota of Bradford,880 East Main Street,Bradford,PA,16701,(814) 368-3191,tylerh@luvtoyota.com,https://www.luvtoyotabradford.com
37036,Krause Toyota,7702 Penn Drive,Breinigsville,PA,18031,(610) 395-9858,Ecom37036@toyota.com,https://www.krausetoyota.com
37157,Diehl Toyota of Butler,266 Pittsburgh Road,Butler,PA,16002,(724) 282-8898,Ecom37157@toyota.com,https://www.diehltoyotabutler.com
37118,South Hills Toyota,2403 Washington Road,Canonsburg,PA,15317,(724) 743-1144,gary@washingtonautomall.net,https://www.southhillstoyota.com
37130,Fitzgerald Toyota Chambersburg,1436 Lincoln Way East,Chambersburg,PA,17201,(717) 264-3359,Ecom37130@toyota.com,https://www.fitzgeraldtoyotachambersburg.com
37114,Conicelli Toyota,550 Ridge Pike,Conshohocken,PA,19428,(610) 825-7128,sales@conicelli.com,https://www.conicellitoyotaofconshohocken.com
37065,Thompson Toyota,122 W. Swamp Road,Doylestown,PA,18901,(215) 345-9460,Ecom37065@toyota.com,https://www.thompsontoyota.net
37203,Delaney Toyota of Dubois,860 Beaver Drive,Dubois,PA,15801,(814) 371-3333,,https://www.delaneytoyota.com
37083,Lancaster Toyota,5270 Manheim Pike,East Petersburg,PA,17520,(717) 569-7373,Ecom37083@toyota.com,https://www.lancastertoyota.com
37201,Toyota of Stroudsburg,1741 Paradise Trail,East Stroudsburg,PA,18301,(570) 421-6930,sales@toyotaofstroudsburg.com,https://www.toyotaofstroudsburg.com
37153,Koch 33 Toyota,3816 Hecktown Road,Easton,PA,18045,(610) 253-9191,Ecom37153@toyota.com,https://www.koch33toyota.com
37096,Allegheny Toyota,722 Allegheny Blvd.,Franklin,PA,16323,(814) 437-7884,Ecom37096@toyota.com,https://www.alleghenytoyotapa.com
37148,Team Toyota of Glen Mills,1050 Baltimore Pike,Glen Mills,PA,19342,(484) 845-7905,Ecom37148@toyota.com,https://www.teamtoyotaglenmills.com
37101,Sloane Toyota of Glenside,503 North Easton Road,Glenside,PA,19038,(215) 885-5400,ecommerce@sloaneautos.com,https://www.sloanetoyotaglenside.com
37204,Jim Shorkey Toyota of Greensburg,4964 Route 30,Greensburg,PA,15601,(724) 837-6693,brianmoore@jimshorkey.com,https://www.jimshorkeytoyotagreensburg.com
37196,Kelly Toyota of Hamburg,41 Industrial Drive,Hamburg,PA,19526,(484) 665-0130,csaraceno@kellycar.com,https://www.kellytoyotaofhamburg.com
37138,Hanover Toyota,1830 Carlisle Pike,Hanover,PA,17331,(717) 633-1818,Ecom37138@toyota.com,https://www.hanovertoyota.com
37161,Faulkner Toyota,3809 Paxton Street,Harrisburg,PA,17111,(717) 565-9000,Ecom37161@toyota.com,https://www.faulknertoyotaharrisburg.com
37193,Heritage Toyota Harrisburg,6060 Allentown Blvd,Harrisburg,PA,17112,(717) 545-4726,,http://www.heritagetoyotaharrisburg.com
37132,Peruzzi Toyota,2601 N. Bethlehem Pike,Hatfield,PA,19440,(215) 997-1111,Ecom37132@toyota.com,https://www.peruzzitoyota.com
37202,LeadCar Toyota Hazleton,730 Airport Road,Hazleton,PA,18202,(570) 453-4141,chris.cass@leadcar.com,https://www.leadcartoyotahazleton.com
37198,Diehl Toyota of Hermitage,2757 E State Street,Hermitage,PA,16148,(724) 347-7702,,https://www.diehltoyotaofhermitage.com
37142,Fiore Toyota,1000 S. Logan Boulevard,Hollidaysburg,PA,16648,(814) 695-5533,leads@emailfiore.com,https://www.gofioretoyota.com
37127,Colonial Toyota,2600 West Pike Road,Indiana,PA,15701,(724) 349-9100,Ecom37127@toyota.com,https://www.shopcolonialtoyota.com
37151,Laurel Toyota,933 Eisenhower Blvd.,Johnstown,PA,15904,(814) 269-3400,Ecom37151@toyota.com,https://www.laureltoyotapa.com
37150,Team Toyota,746 E. Lincoln Highway,Langhorne,PA,19047,(215) 741-4200,Ecom37150@toyota.com,https://www.teamtoyotalanghorne.com
37188,Bennett Toyota of Lebanon,2635 West Cumberland Street,Lebanon,PA,17042,(717) 202-8888,,https://www.bennetttoyotaoflebanon.com
37154,Tri County Toyota,15 D & L Drive,Limerick,PA,19468,(610) 495-4588,Ecom37154@toyota.com,https://www.tricountytoyota.com
37164,Sloane Toyota of Malvern,593 Lancaster Avenue,Malvern,PA,19335,(610) 647-2300,ecommerce@sloaneautos.com,https://www.sloanetoyotamalvern.com
37185,Baierl Toyota,"19045 Perry Highway, Route 19",Mars,PA,16046,(724) 741-1108,JOSEPHMCMAHON@BAIERL.COM,https://www.baierltoyota.com
37109,Palmiero Toyota,16165 Conneaut Lake Road,Meadville,PA,16335,(814) 336-1061,sales@palmieroautogroup.com,https://www.palmierotoyota.net
37149,Bobby Rahal Toyota,6711 Carlisle Pike,Mechanicsburg,PA,17050,(717) 691-0500,Ecom37149@toyota.com,https://www.bobbyrahaltoyota.com
37162,Spitzer Toyota,4710 William Penn Highway,Monroeville,PA,15146,(412) 373-6200,Ecom37162@toyota.com,https://www.spitzertoyota.com
37194,Brewer Airport Toyota,8900 University Blvd.,Moon Township,PA,15108,(412) 262-5600,dbaselj@brewerairporttoyota.com,https://brewerairporttoyota.com
37191,Ciocca Toyota of Williamsport,203 Lycoming Mall Drive,Muncy,PA,17756,(570) 323-4683,,https://www.cioccatoyotaofwilliamsport.com
37135,Preston Toyota,1502 Wilmington Road,New Castle,PA,16105,(724) 658-1531,Ecom37135@toyota.com,https://www.prestontoyota.com
37184,New Holland Toyota,524 West Main Street,New Holland,PA,17557,(717) 354-4766,,https://www.toyotanewholland.com
37189,Cochran Toyota,12204 Route 30,North Huntingdon,PA,15642,(724) 515-2220,dbernardini@cochran.com,https://www.cochrantoyota.com
37152,Sloane Toyota of Philadelphia,1546 Cottman Avenue,Philadelphia,PA,19111,(215) 742-9300,ecommerce@sloaneautos.com,https://www.sloanetoyotaphiladelphia.com
37175,Toyota Certified at Central City,4800 Chestnut Street,Philadelphia,PA,19139,(215) 476-1200,sales@centralcitytoyota.com,https://www.centralcitytoyota.com
37199,Jim Shorkey Toyota,7401 McKnight Road,Pittsburgh,PA,15237,(412) 318-3000,,https://www.jimshorkeytoyota.com
37106,Rohrich Toyota,2020 West Liberty Avenue,Pittsburgh,PA,15226,(412) 344-6012,Ecom37106@toyota.com,https://www.rohrichtoyota.com
37187,Ken Ganley Toyota,1110 Clairton Blvd.,Pleasant Hills,PA,15236,(412) 469-3000,jyelling@ganleyauto.com,https://www.kenganleytoyota.com
37134,Williams Toyota of Sayre,2468 Elmira Street,Sayre,PA,18840,(570) 888-2281,Ecom37134@toyota.com,https://www.williamstoyotaofsayre.com
37176,Toyota of Scranton,3400 North Main Avenue,Scranton,PA,18508,(570) 489-7584,ablad@tsofs.com,https://www.toyotaofscranton.com
37155,Aubrey Alexander Toyota,1324 N. Susquehanna Trail,Selinsgrove,PA,17870,(570) 743-1171,Ecom37155@toyota.com,https://www.aubreyalexandertoyota.com
37077,Performance Motors Toyota,4681 Penn Avenue,Sinking Spring,PA,19608,(610) 678-3425,Ecom37077@toyota.com,https://www.performancetoyotapa.com
37172,Conicelli Toyota of Springfield,860 Baltimore Pike,Springfield,PA,19064,(610) 690-6000,Ecom37172@toyota.com,https://www.conicellitoyotaofspringfield.com
37205,Bobby Rahal Toyota of State College,120 East Clinton Avenue,State College,PA,16803,(814) 753-1400,,https://www.bobbyrahaltoyotaofstatecollege.com
37112,Del Toyota,2945 East Lincoln Highway,Thorndale,PA,19372,(610) 383-6200,Ecom37112@toyota.com,https://www.deltoyota.com
37125,Faulkner Toyota,2425 Lincoln Highway,Trevose,PA,19053,(215) 244-9300,Ecom37125@toyota.com,https://www.faulknertoyotatrevose.com
37190,Mike Kelly Toyota of Uniontown,1 Mary Jane Wood Drive,Uniontown,PA,15401,(724) 437-8422,,http://www.mikekellytoyota.com
37195,Toyota of Erie,9140 Peach Street,Waterford,PA,16441,(814) 868-3656,joshua.bakuhn@toyotaoferie.com,https://www.toyotaoferie.com
37171,Motorworld Toyota,150 Motorworld Drive,Wilkes Barre,PA,18702,(570) 829-3500,Ecom37171@toyota.com,https://www.motorworldtoyota.com
37126,Toyota of York,1885 Whiteford Road,York,PA,17402,(717) 755-2961,Ecom37126@toyota.com,https://www.toyotaofyork.com
38030,Grieco Toyota,415 Taunton Avenue,East Providence,RI,02914,(401) 438-0350,toyotasales@metromotorgroup.com,https://www.griecotoyota.com
38031,Langway Toyota of Newport,285 East Main Road,Middletown,RI,02842,(401) 619-5400,,https://www.langwaytoyotaofnewport.com
38032,Nucar Toyota of North Kingstown,3671 Quaker Lane,North Kingstown,RI,02852,(401) 884-5438,rclements@nucar.com,https://www.nucartoyotanorthkingstown.com
38029,Toyota of Smithfield,550 George Washington Hwy,Smithfield,RI,02917,(401) 723-0972,,https://www.toyotaofsmithfield.com
38026,Balise Toyota of Warwick,1400 Post Road,Warwick,RI,02888,(401) 785-8900,Ecom38026@toyota.com,https://www.balisetoyotaofwarwick.com
38025,Valenti Toyota,6 Langworthy Road,Westerly,RI,02891,(401) 322-7200,Ecom38025@toyota.com,https://www.valentitoyota.com
39003,Ralph Hayes Toyota,3525 Clemson Boulevard,Anderson,SC,29621,(864) 226-1571,sales@ralphhayestoyota.com,https://www.ralphhayestoyota.com
39040,Stokes Toyota Beaufort,3557 Trask Parkway,Beaufort,SC,29906,(843) 522-3232,text@stokesbrowntoyota.com,https://www.stokestoyotabeaufort.com
39055,Stokes Toyota Hilton Head,100 Fording Island Road,Bluffton,SC,29910,(843) 815-4444,sales@stokesbrowntoyotahh.com,https://www.stokestoyotahiltonhead.com
39059,Fred Anderson Toyota of Charleston,2100 Savannah Highway,Charleston,SC,29414,(843) 556-9110,text@toyotaofcharleston.com,https://www.toyotaofcharleston.com
39067,Midlands Toyota,240 Killian Commons Parkway,Columbia,SC,29203,(803) 786-4111,,https://www.mymidlandstoyota.com
39028,Toyota of Easley,5643 Calhoun Memorial Hwy,Easley,SC,29640,(864) 855-2233,sales@toyotaofeasley.com,https://www.toyotaofeasley.com
39046,Florence Toyota,2300 West Palmetto Street,Florence,SC,29501,(843) 669-1676,text@florencetoyota.com,https://www.florencetoyota.com
39061,Toyota of Greenville,2686 Laurens Road,Greenville,SC,29607,(864) 288-3535,text@toyotaofgreenville.com,https://www.toyotaofgreenville.com
39042,Ballentine Toyota,1305 Highway 72 By-Pass,Greenwood,SC,29646,(864) 229-5052,text@ballentinetoyota.com,https://www.ballentinetoyota.com
39069,Fred Anderson Toyota of Greer,13770 E. Wade Hampton Blvd.,Greer,SC,29651,(864) 662-4800,,https://www.fredandersontoyotaofgreer.com
39052,Jim Hudson Toyota,970 Columbiana Drive,Irmo,SC,29063,(803) 407-5678,sales@jimhudsontoyota.com,https://www.jimhudsontoyota.com
39049,Lugoff Toyota,878 Highway 1 South,Lugoff,SC,29078,(803) 438-2772,text@lugofftoyota.com,https://www.lugofftoyota.com
39064,Miracle Toyota of North Augusta,5512 Jefferson Davis Highway,North Augusta,SC,29841,(803) 279-8400,,https://www.miracletoyotaofnorthaugusta.com
39060,Hendrick Toyota North Charleston,7151 Rivers Avenue,North Charleston,SC,29406,(843) 797-8000,tncreceptionist@hendrickauto.com,https://www.hendricktoyotanorthcharleston.com
39065,Davis Toyota of Orangeburg,3237 St. Matthews Road,Orangeburg,SC,29118,(803) 536-4512,,https://www.davisorangeburgtoyota.com
39058,Toyota of Rock Hill,640 Galleria Boulevard,Rock Hill,SC,29730,(803) 328-2886,toyotarockhill@leadcrm.com,https://www.toyotarockhill.com
39068,Spartanburg Toyota,2450 Reidville Road,Spartanburg,SC,29301,(864) 595-2300,,https://www.spartanburgtoyota.com
39070,Jim Hudson Toyota Sumter,2542 Broad Street,Sumter,SC,29150,(803) 469-9500,,https://www.jimhudsontoyotasumter.com
39066,Peter Boulware Toyota of Columbia,2136 Sunset Blvd.,West Columbia,SC,29169,(803) 796-6650,,https://www.toyotaofcolumbia.com
40009,Harr Toyota,4255 6th Avenue SE,Aberdeen,SD,57401,(605) 225-3078,Ecom40009@toyota.com,https://www.harr-toyota.com
40022,Capital City Toyota,518 East Sioux Avenue,Pierre,SD,57501,(605) 224-7378,,https://www.toyotacapitalcity.com
40021,Denny Menholt Toyota,1920 East Mall Drive,Rapid City,SD,57701,(605) 342-2490,,https://www.dennymenholttoyota.com
40011,Billion Toyota,4101 W. 12th Street,Sioux Falls,SD,57106,(605) 361-7000,Ecom40011@toyota.com,https://www.siouxfallstoyota.com
40017,Sharp Chevrolet-Toyota,1112 9th Ave SW,Watertown,SD,57201,(605) 886-8081,Ecom40017@toyota.com,https://www.sharptoyota.com
41061,Rick McGill's Airport Toyota,3145 Alcoa Highway,Alcoa,TN,37701,(865) 970-2615,sales@rickmcgillsairporttoyota.edealerhub.com,https://www.rickmcgillairporttoyota.com
41087,Toyota of Bristol,3045 W. State Street,Bristol,TN,37620,(423) 764-3155,,https://www.toyotaofbristol.com
41001,Capital Toyota,5808 Lee Hwy,Chattanooga,TN,37421,(423) 892-0661,Ecom41001@toyota.com,https://www.capitaltoyota.com
41084,Wyatt Johnson Toyota,2595 Wilma Rudolph Blvd,Clarksville,TN,37040,(931) 645-8900,,https://www.wyattjohnsontoyota.com
41086,Fox Toyota,228 Fox Family Lane,Clinton,TN,37716,(865) 494-0228,,https://www.foxtoyotaclinton.com
41021,Roberts Toyota,1027 Nashville Highway,Columbia,TN,38401,(931) 388-3006,Ecom41021@toyota.com,https://www.robertstoyota.com
41090,Cumberland Toyota,1540 Interstate Drive,Cookeville,TN,38501,(931) 526-5600,,https://www.cumberlandtoyota.com
41066,Wolfchase Toyota,2201 North Germantown Parkway,Cordova,TN,38016,(901) 384-3100,Ecom41066@toyota.com,https://www.wolfchasetoyota.com
41089,Victory Toyota Dyersburg,920 Highway 51 Bypass,Dyersburg,TN,38024,(731) 285-5110,,https://www.victorytoyotadyersburg.com
41073,Landers McLarty Toyota,2970 Huntsville Highway,Fayetteville,TN,37334,(931) 438-6300,Ecom41073@toyota.com,https://www.landersmclartytoyota.com
41078,Toyota of Cool Springs,1875 West McEwen Drive,Franklin,TN,37067,(615) 790-8401,Ecom41078@toyota.com,https://www.toyotaofcoolsprings.com
41083,Toyota of Gallatin,1435 Nashville Pike,Gallatin,TN,37066,(615) 230-9000,,https://www.toyotagallatin.com
41063,Robinson Toyota,1453 Vann Drive,Jackson,TN,38305,(731) 668-1234,Ecom41063@toyota.com,https://www.robinsontoyota.com
41082,Johnson City Toyota,3124 Bristol Highway,Johnson City,TN,37601,(423) 282-2241,,https://www.johnsoncitytoyota.com
41030,Toyota of Kingsport,2525 East Stone Drive,Kingsport,TN,37660,(423) 246-6611,Ecom41030@toyota.com,https://www.toyotaofkingsport.com
41060,Toyota Knoxville,10415 Parkside Drive,Knoxville,TN,37922,(865) 218-3300,Ecom41060@toyota.com,https://www.toyotaknoxville.com
41041,Nashville Toyota North,2400 Gallatin Pike North,Madison,TN,37115,(615) 868-7990,Ecom41041@toyota.com,https://www.nashvilletoyotanorth.com
41057,John Roberts Toyota,2610 Hillsboro Highway,Manchester,TN,37355,(931) 723-4444,Ecom41057@toyota.com,https://www.johnrobertstoyota.com
41056,Toyota of Cleveland,3560 Village North Bl SW,McDonald,TN,37353,(423) 339-1138,Ecom41056@toyota.com,https://www.toyotaofcleveland.com
41070,Chuck Hutton Toyota,4601 Hutton Way,Memphis,TN,38116,(901) 345-3200,Ecom41070@toyota.com,https://www.chuckhuttontoyota.com
41043,Principle Toyota,7370 Winchester Road,Memphis,TN,38125,(901) 758-4040,Ecom41043@toyota.com,https://www.principletoyota.com
41052,Rusty Wallace Toyota,5944 W Andrew Johnson Hwy,Morristown,TN,37814,(423) 587-1972,Ecom41052@toyota.com,https://www.rustywallacetoyota.com
41079,Toyota of Murfreesboro,3434 Bill Smith Drive,Murfreesboro,TN,37129,(615) 890-1500,Ecom41079@toyota.com,https://www.toyotaofmurfreesboro.com
41085,Beaman Toyota,343  Harding Place,Nashville,TN,37211,(615) 251-8400,,https://www.beamantoyota.com
41062,Peppers Toyota,2400 East Wood Street,Paris,TN,38242,(731) 642-3900,Ecom41062@toyota.com,https://www.pepperstoyota.com
42292,Lithia Toyota of Abilene,4449 Southwest Drive,Abilene,TX,79606,(325) 793-3000,internet@lithiatoyotaofabilene.com,https://www.toyotaabilene.com
42161,Street Toyota,4500 South Soncy Road,Amarillo,TX,79119,(806) 355-9846,sales@street-toyota.com,https://www.streettoyota.com
42250,Gulf Coast Toyota,3000 N. 288 Freeway,Angleton,TX,77515,(713) 422-7200,gulfcoastauto@mywebpager.com,https://www.gulfcoasttoyota.com
42343,Family Toyota of Arlington,1661 Wet 'N Wild Way,Arlington,TX,76011,(817) 505-0000,,https://www.familytoyotaofarlington.com
42286,Vandergriff Toyota,1000 West I-20,Arlington,TX,76017,(817) 380-4144,internet@vandergrifftoyota.com,https://www.vandergrifftoyota.com
42262,AutoNation Toyota South Austin,4800 IH-35 South,Austin,TX,78745,(512) 518-6900,internet@championtoyota.com,https://www.autonationtoyotasouthaustin.com
42409,Group 1 Toyota North Austin,8400 Research Boulevard,Austin,TX,78758,(512) 458-2222,,https://www.group1toyotanorthaustin.com
42312,Lost Pines Toyota,806 Highway 71 West,Bastrop,TX,78602,(512) 303-1200,,https://www.lostpinestoyota.com
42291,Community Toyota,4701 Interstate 10 East,Baytown,TX,77521,(281) 839-7700,internet@communitytoyota.com,https://www.communitytoyota.com
42410,Doggett Toyota of Beaumont,4235 Eastex Freeway,Beaumont,TX,77706,(409) 892-4888,,https://www.doggetttoyotabeaumont.com
42305,Vic Vaughan Toyota of Boerne,31205 IH-10 West,Boerne,TX,78006,(210) 870-1800,internet@toyotaofboerne.com,https://www.vicvaughantoyotaofboerne.com
42338,Brownsville Toyota,6750 N. Expressway,Brownsville,TX,78526,(956) 435-8100,,https://www.brownsvilletoyota.com
42315,Bryan College Station Toyota,728 N. Earl Rudder Frwy.,Bryan,TX,77802,(979) 776-0404,,https://www.bcstoyota.com
42327,Family Toyota of Burleson,801 S. Burleson Blvd.,Burleson,TX,76028,(817) 447-4400,,https://www.familytoyotaofburleson.com
42419,Toyota of Cedar Park,5600 183A Toll Road,Cedar Park,TX,78641,(512) 379-7575,,https://www.toyotaofcedarpark.com
42234,Gullo Toyota of Conroe,500 I-45 South,Conroe,TX,77304,(936) 441-4141,internet@gullotoyota.com,https://www.gullotoyota.com
42283,AutoNation Toyota Corpus Christi,6672 S. Padre Island Dr.,Corpus Christi,TX,78412,(361) 444-0160,internet@championtoyotaofcorpus.com,https://www.autonationtoyotacorpuschristi.com
42304,Mike Shaw Toyota,3232 US Highway 77,Corpus Christi,TX,78380,(361) 316-3355,internet@mikeshawtoyota.com,https://www.mikeshawtoyota.com
42215,Stewart Toyota,3400 South Interstate 45,Corsicana,TX,75110,(903) 874-6556,internet@stewarttoyota.com,https://www.stewarttoyota.com
42408,John Eagle Sport City Toyota,12650 LBJ Freeway,Dallas,TX,75228,(972) 681-3000,,https://www.sportcitytoyota.com
42412,Legacy Toyota of Dallas,39660 LBJ Freeway (I-20),Dallas,TX,75237,(972) 780-1166,,https://www.legacytoyotadallas.com
42416,Norm Reeves Toyota Dallas,9525 E. RL Thornton Frwy,Dallas,TX,75228,(214) 324-0411,,https://www.normreevestoyotadallas.com
42278,Toyota of Dallas,2610 Forest Lane,Dallas,TX,75234,(972) 241-6655,internet@toyota-dallas.com,https://www.toyotaofdallas.com
42254,Toyota of Del Rio,3617 Highway 90 West,Del Rio,TX,78840,(830) 775-7577,internet@ramcountrytoyota.com,https://www.toyotaofdelrio.com
42411,Platinum Toyota of Texoma,1920 U.S. Highway 75 North,Denison,TX,75020,(903) 463-9800,,https://www.platinumtoyota.com
42323,Toyota of Denton,4100 South IH 35 East,Denton,TX,76210,(940) 382-5481,,https://www.toyotaofdenton.com
42299,Bruner Toyota,224 Early Boulevard,Early,TX,76802,(325) 646-0500,internet@brunertoyota.com,https://www.brunertoyota.com
42219,Fox Toyota of El Paso,11165 Gateway Boulevard West,El Paso,TX,79935,(915) 598-0399,internet@hoyfoxtoyota.com,https://www.foxtoyotaofelpaso.com
42345,Poe Toyota,6330 Montana Avenue,El Paso,TX,79925,(915) 775-2000,,https://www.poetoyota.com
42347,Toyota of Fort Worth,9001 Camp Bowie West Blvd.,Fort Worth,TX,76116,(817) 560-1500,,https://www.toyotaoffortworth.com
42311,Classic Toyota Galveston,7802 Broadway,Galveston,TX,77554,(409) 744-5711,,https://www.classictoyotagalveston.com
42403,Shottenkirk Toyota Granbury,5100 E. US Highway 377,Granbury,TX,76049,(817) 279-6800,,https://www.shottenkirktoyotagranbury.com
42268,Texas Toyota of Grapevine,701 State Hwy. 114 East,Grapevine,TX,76051,(817) 329-5949,internet@toyotaofgrapevine.com,https://www.toyotaofgrapevine.com
42324,Bert Ogden Toyota of Harlingen,8721 W. Expressway 83,Harlingen,TX,78552,(956) 423-0000,,https://www.bertogdentoyota.com
42271,AutoNation Toyota Gulf Freeway,"12111 Gulf Freeway, Bldg. B",Houston,TX,77034,(713) 489-2097,internet@championtoyotagulffreeway.com,https://www.autonationtoyotagulffreeway.com
42087,Don McGill Toyota,11800 Katy Freeway,Houston,TX,77079,(281) 496-2000,internet@donmcgilltoyota.com,https://www.donmcgilltoyota.com
42282,Fred Haas Toyota Country,22435 SH-249,Houston,TX,77070,(281) 357-4000,internet@fredhaastoyotacountry.com,https://www.fredhaastoyotacountry.com
42073,Group 1 Toyota Southwest Houston,9400 Southwest Freeway,Houston,TX,77074,(713) 270-3900,internet@smccalltoyota.com,www.group1toyotasouthwesthouston.com
42270,Joe Myers Toyota,19010 Northwest Freeway,Houston,TX,77065,(281) 890-8700,internet@joemyerstoyota.com,https://www.joemyerstoyota.com
42138,Mike Calvert Toyota,2333 South Loop West,Houston,TX,77054,(713) 558-8100,internet@mikecalverttoyota.com,https://www.mikecalverttoyota.com
42402,Shottenkirk Toyota Weatherford,2601 E. I-20 Service Road,Hudson Oaks,TX,76087,(817) 597-5000,,https://www.shottenkirktoyotaweatherford.com
42413,Space City Toyota,19011 Highway 59 North,Humble,TX,77338,(281) 446-0271,,https://www.spacecitytoyota.com
42316,Huntsville Toyota,849 I-45 South,Huntsville,TX,77340,(936) 349-0909,,https://www.huntsvilletoyotapm.com
42253,Freeman Toyota,204 Northeast Loop 820,Hurst,TX,76053,(817) 287-5200,internet@freemantoyota.com,https://www.freemantoyota.com
42057,Toyota of Irving,1999 West Airport Frwy.,Irving,TX,75062,(972) 258-1200,jeremy_dodson@toyotaofirving.com,https://www.toyotaofirving.com
42284,Don McGill Toyota of Katy,21555 Katy Freeway,Katy,TX,77450,(832) 772-1000,internetleads@donmcgilltoyotakaty.com,https://www.toyotaofkaty.com
42228,Toyota of Killeen,4001 E Central Texas Exp.,Killeen,TX,76543,(254) 690-5800,internet@toyotaofkilleen.com,https://www.toyotaofkilleen.com
42025,Toyota of Laredo,6324 Bob Bullock Loop,Laredo,TX,78041,(956) 718-4200,sales@toyotaoflaredo.com,https://www.toyotaoflaredo.com
42336,Mac Haik Toyota,2112 Gulf Freeway,League City,TX,77573,(281) 338-9700,,https://www.machaiktoyota.com
42320,Lone Star Toyota of Lewisville,1547 S. Stemmons Frwy.,Lewisville,TX,75067,(469) 671-5500,,https://www.lonestartoyotalewisville.com
42352,Toyota of Longview,1400 West Loop 281,Longview,TX,75604,(903) 295-9300,,https://www.toyotaoflongview.com
42264,Gene Messer Toyota,6102 19th Street,Lubbock,TX,79407,(806) 748-4800,internet@genemessertoyota.com,https://www.genemessertoyota.com
42259,Loving Toyota,1807 South Medford Drive,Lufkin,TX,75901,(936) 699-1000,internet@lovingtoyota.com,https://www.lovingtoyota.com
42321,Keating Toyota,4233 Del Bello Boulevard,Manvel,TX,77578,(281) 388-8600,,https://www.keatingtoyota.com
42348,Shapen Toyota,5015 East End Blvd. South,Marshall,TX,75672,(903) 938-9026,,https://www.shapentoyota.com
42295,Pat Lobb Toyota of McKinney,3350 S. Central Expresswy,McKinney,TX,75070,(214) 544-8696,internet@patlobb.com,https://www.toyotaofmckinney.com
42309,Toyota of Midland,800 North Loop 250 West,Midland,TX,79703,(432) 520-4114,sales@toyotaofmidland.com,https://www.toyotaofmidland.com
42405,Toyota of Mt. Pleasant,102 Tankersley Road,Mt. Pleasant,TX,75455,(903) 577-7770,,https://www.toyotaofmtpleasant.com
42026,Robbins Toyota,6233 Mall Drive,Nash,TX,75569,(903) 794-5121,appointments@robbinstoyota.com,https://www.robbinstoyota.com
42275,Philpott Toyota,2229 Highway 69 N,Nederland,TX,77627,(409) 853-3800,internet@philpotttoyota.com,https://www.philpotttoyota.com
42290,Lithia Toyota of Odessa,5050 John Ben Shepperd Parkway,Odessa,TX,79762,(432) 367-2000,internet@lithiatoyotaofodessa.com,https://www.odessatoyota.com
42415,Texana Toyota,2500 IH 10 W,Orange,TX,77632,(409) 883-8451,,https://www.texanatoyota.com
42325,Palestine Toyota,2728 South Loop 256,Palestine,TX,75801,(903) 480-9390,,https://www.palestinetoyota.com
42418,McGavock Toyota of Pampa,805 North Hobart Street,Pampa,TX,79065,(806) 665-1665,,https://www.mcgavocktoyota.com
42404,Toyota of Paris,3235 NE Loop 286,Paris,TX,75460,(903) 784-8989,,https://www.toyotaofparistx.com
42417,Toyota of Pharr,1625 W. Interstate 2,Pharr,TX,78577,(956) 784-3300,,https://www.toyotaofpharr.com
42221,Toyota of Plano,6888 State Hwy 121,Plano,TX,75024,(972) 248-7777,internet@toyotaofplano.com,https://www.toyotaofplano.com
42346,Longo Toyota of Prosper,2100 West University Drive,Prosper,TX,75078,(469) 296-4557,,https://www.longotoyotaofprosper.com
42202,Toyota of Richardson,1221 N Central Expressway,Richardson,TX,75080,(214) 446-8081,internet@toyotaofrichardson.com,https://www.toyotaofrichardson.com
42273,Group 1 Toyota Fort Bend,20465 Southwest Freeway,Richmond,TX,77469,(281) 341-5900,internet@fortbendtoyota.com,https://www.group1toyotafortbend.com
42302,Toyota of Rockwall,1250 East I30,Rockwall,TX,75087,(469) 402-1300,230934Toyota@tpl.carlead.com,https://www.toyotaofrockwall.com
42298,Round Rock Toyota,2307 North I-35,Round Rock,TX,78664,(512) 244-6900,internet@roundrocktoyota.com,https://www.roundrocktoyota.com
42192,Mitchell Toyota,1500 Knickerbocker Road,San Angelo,TX,76904,(325) 653-2302,ileads@mitchellToyota.com,https://www.mitchelltoyota.com
42186,Cavender Toyota,5730 N.W. Loop 410,San Antonio,TX,78238,(210) 681-6601,internet@cavendertoyota.com,https://www.cavendertoyota.com
42342,North Park Toyota of San Antonio,10703 Southwest Loop 410,San Antonio,TX,78211,(210) 635-5000,,https://www.northparktoyota.com
42201,Red McCombs Toyota,13526 IH-10 West,San Antonio,TX,78249,(210) 530-3000,internet@redmccombstoyota.com,https://www.redmccombstoyota.com
42414,Shottenkirk Toyota San Antonio,18019 N US Highway 281,San Antonio,TX,78232,(210) 494-1604,,https://www.shottenkirktoyotasanantonio.com
42241,Universal Toyota,12102 IH-35 North,San Antonio,TX,78233,(210) 654-1515,internet@universaltoyota.com,https://www.universaltoyota.com
42407,San Marcos Toyota,5101 IH-35 South,San Marcos,TX,78666,(512) 392-1999,,https://www.sanmarcostoyota.com
42255,Silsbee Toyota,1396 Highway 327 East,Silsbee,TX,77656,(409) 895-3700,internet@silsbeetoyota.com,https://www.silsbeetoyota.com
42095,Fred Haas Toyota World,20400 Interstate 45 North,Spring,TX,77373,(281) 297-7000,internet@fredhaastoyota.com,https://www.fredhaastoyota.com
42196,Don Ringler Toyota,7777 S. General Bruce Dr.,Temple,TX,76502,(254) 778-4285,sales@donringlertoyota.com,https://www.donringlertoyota.com
42242,Classic Toyota,1717 West SW Loop 323,Tyler,TX,75701,(903) 581-0600,internet@classictoyotatyler.com,https://www.classictoyotatyler.com
42313,Toyota of Victoria,5902 North Navarro,Victoria,TX,77904,(361) 578-1505,,https://www.toyotaofvictoria.com
42216,Toyota of Waco,1440 West Loop 340,Waco,TX,76712,(254) 662-6644,internet@jeffhuntertoyota.com,https://www.toyotaofwaco.com
42406,Toyota of Wichita Falls,5715 Kell E. Boulevard,Wichita Falls,TX,76310,(940) 280-2510,,https://www.toyotaofwf.com
43026,Performance Toyota Bountiful,2380 South Highway 89,Bountiful,UT,84010,(801) 295-3481,Ecom43026@toyota.com,https://www.toyotabountiful.com
43022,Karl Malone Toyota,11453 So. Lone Peak Pkwy,Draper,UT,84020,(801) 553-5800,jlarson@toyota.com,https://www.malonetoyota.com
43027,Young Toyota,1945 North Main Street,Logan,UT,84341,(435) 752-5636,,https://www.youngtoyota.com
43029,Larry H. Miller Toyota Murray,5650 South State Street,Murray,UT,84107,(801) 264-3800,,https://www.larryhmillertoyota.com
43028,Orem Toyota,1400 South Sandhill Road,Orem,UT,84058,(801) 224-1320,whenrie@Brentbrownauto.com,https://www.oremtoyota.com
43019,Tony Divino Toyota,777 West Riverdale Road,Riverdale,UT,84405,(801) 394-5701,Ecom43019@toyota.com,https://www.tonydivinotoyota.com
43020,Mark Miller Toyota,730 South West Temple,Salt Lake City,UT,84101,(801) 364-2100,Ecom43020@toyota.com,https://www.markmillertoyota.com
43025,Stephen Wade Toyota,150 Auto Mall Drive,St. George,UT,84770,(435) 296-7867,Ecom43025@toyota.com,https://www.stephenwadetoyota.com
45097,Alexandria Toyota,3750 Richmond Highway,Alexandria,VA,22305,(703) 684-0700,,https://www.alexandriatoyota.com
45105,Koons Toyota Arlington,4045 Cherry Hill Road,Arlington,VA,22207,(703) 522-6000,,https://www.koonstoyotaarlington.com
45079,Ourisman Chantilly Toyota,4135 Auto Park Circle,Chantilly,VA,20151,(703) 378-2121,Ecom45079@toyota.com,https://www.ourismanchantillytoyota.com
45098,Flow Toyota of Charlottesville,1357 Richmond Road,Charlottesville,VA,22911,(434) 977-3380,,https://www.flowtoyotaofcharlottesville.com
45080,First Team Toyota,3400 Western Branch Boulevard,Chesapeake,VA,23321,(757) 673-2345,Ecom45080@toyota.com,https://www.firstteamtoyota.com
45100,Priority Toyota Chesapeake,1800 Greenbrier Parkway,Chesapeake,VA,23320,(757) 366-5000,ptc-inquiries@priorityauto.com,https://www.prioritytoyotachesapeake.com
45082,Loyalty Toyota,2000 Walthall Center Dr.,Chester,VA,23831,(804) 796-1800,Ecom45082@toyota.com,https://www.loyaltytoyotarichmond.com
45036,Shelor Toyota,2230 Roanoke Street,Christiansburg,VA,24073,(540) 382-2981,Ecom45036@toyota.com,https://www.shelortoyota.com
45086,Battlefield Toyota,11013 James Monroe Hwy.,Culpeper,VA,22701,(540) 317-7800,Ecom45086@toyota.com,https://www.battlefieldtoyota.com
45045,Danville Toyota,125 Piedmont Place,Danville,VA,24541,(434) 822-0300,Ecom45045@toyota.com,https://www.danvilletoyota.com
45055,Ourisman Fairfax Toyota,10287 Fairfax Boulevard,Fairfax,VA,22030,(703) 359-1010,Ecom45055@toyota.com,https://www.ourismanfairfaxtoyota.com
45016,Bill Page Toyota,2923 Annandale Road,Falls Church,VA,22042,(703) 532-8800,Ecom45016@toyota.com,https://www.billpagetoyota.com
45077,Haley Toyota of Farmville,1906 S. Main Street,Farmville,VA,23901,(434) 392-8166,Ecom45077@toyota.com,https://www.haleytoyotafarmville.com
45092,Sheehy Toyota of Fredericksburg,11295 Patriot Highway,Fredericksburg,VA,22408,(540) 898-7900,kevinruney@sheehy.com,https://www.sheehytoyotafredericksburg.com
45094,Gloucester Toyota,6357 George Washington Highway,Gloucester,VA,23061,(804) 693-2100,jbrown@gloucestertoyota.com,https://www.gloucestertoyota.com
45102,Classic Toyota of Hampton,2301 West Mercury Boulevard,Hampton,VA,23666,(757) 838-5000,,https://www.classictoyotahampton.com
45070,Steven Toyota,2970 South Main St.,Harrisonburg,VA,22801,(540) 434-1400,Ecom45070@toyota.com,https://www.steventoyota.com
45083,AutoNation Toyota Leesburg,"1 Cardinal Park Drive, S.E.",Leesburg,VA,20175,(571) 357-3965,Ecom45083@toyota.com,https://www.autonationtoyotaleesburg.com
45085,Berglund Toyota,19018 Forest Road,Lynchburg,VA,24502,(434) 528-3202,Ecom45085@toyota.com,https://www.berglundtoyota.com
45040,Miller Toyota,8566 Sudley Road,Manassas,VA,20110,(703) 369-3040,Ecom45040@toyota.com,https://www.millertoyota.com
45074,Mechanicsville Toyota,6546 Mechanicsville Pike,Mechanicsville,VA,23111,(804) 559-8000,Ecom45074@toyota.com,https://www.mechanicsvilletoyota.com
45057,Haley Toyota of Richmond,3600 Lonas Parkway,Midlothian,VA,23112,(804) 545-7411,Ecom45057@toyota.com,https://www.haleytoyota.com
45039,Pearson Toyota,12978 Jefferson Avenue,Newport News,VA,23608,(757) 874-6000,Ecom45039@toyota.com,https://www.pearsontoyotascion.com
45084,Haley Toyota of Richmond CC,8301 Midlothian Pike,Richmond,VA,23235,(804) 228-4000,Ecom45084@toyota.com,https://www.haleycertified.com
45103,Ourisman Toyota of Richmond,9319 West Broad Street,Richmond,VA,23294,(804) 755-9200,rvacustomerservice@ourisman.com,https://www.ourismantoyotaofrichmond.com
45053,Haley Toyota of Roanoke,"1530 Courtland Road, N.E.",Roanoke,VA,24012,(540) 345-1666,Ecom45053@toyota.com,https://www.haleytoyotaofroanoke.com
45099,Priority Toyota Springfield,7601 Loisdale Road,Springfield,VA,22150,(703) 269-1400,,https://www.prioritytoyotaspringfield.com
45091,Sheehy Toyota of Stafford,95 Garrisonville Road,Stafford,VA,22554,(540) 720-4700,mikewright@sheehy.com,https://www.sheehytoyotastafford.com
45087,Nelson Toyota,980 Fairystone Park Highway,Stanleytown,VA,24168,(276) 638-2386,lnelson@autosbynelson.com,https://www.toyotasbynelson.com
45030,McDonough Toyota,918 Richmond Road,Staunton,VA,24401,(540) 886-6201,Ecom45030@toyota.com,https://www.mcdonoughtoyota.com
45104,Koons Toyota Tysons,8610 Leesburg Pike,Vienna,VA,22182,(888) 386-0017,,https://www.koonstoyotatysonscorner.com
45009,Checkered Flag Toyota,5301 Virginia Beach Boulevard,Virginia Beach,VA,23462,(757) 490-1111,Ecom45009@toyota.com,https://toyota.checkeredflag.com
45095,Hall Toyota Virginia Beach,1877 Laskin Road,Virginia Beach,VA,23454,(757) 437-4000,,https://www.halltoyotavirginiabeach.com
45088,Warrenton Toyota,6449 Lee Highway,Warrenton,VA,20187,(540) 878-4100,Ecom45088@toyota.com,https://www.warrentontoyota.com
45076,Casey Toyota,601 East Rochambeau Drive,Williamsburg,VA,23188,(757) 259-1000,Ecom45076@toyota.com,https://www.caseytoyota.com
45089,Malloy Toyota,400 Weems Lane,Winchester,VA,22601,(540) 678-1791,EAKERS@MALLOYTOYOTA.COM,https://www.malloytoyota.com
45096,Toyota of Woodbridge,14227 Richmond Highway,Woodbridge,VA,22191,(703) 494-1800,,https://www.toyotawoodbridge.com
44025,Coggins Toyota of Bennington,751 North Bennington Road,Bennington,VT,05201,(802) 681-0600,,https://www.cogginstoyotaofbennington.com
44022,802 Toyota,30 Berlin Mall Road,Berlin,VT,05602,(802) 229-9117,Ecom44022@toyota.com,https://www.802toyota.com
44020,Alderman's Toyota,33 Seward Road,Rutland,VT,05701,(802) 776-6000,Ecom44020@toyota.com,https://www.aldermanstoyota.com
44014,Heritage Toyota,1620 Shelburne Road,South Burlington,VT,05403,(802) 865-8200,Ecom44014@toyota.com,https://www.heritagetoyotacars.com
44013,Handy Toyota,701 Highgate Road,St. Albans,VT,05478,(802) 527-7512,Ecom44013@toyota.com,https://www.handytoyota.com
44024,Faith's Toyota Ford,6896 Route 5 South,Westminster,VT,05158,(802) 463-3300,,https://www.faithstoyota.com
44016,White River Toyota,303 Sykes Mountain Avenue,White River Junction,VT,05001,(802) 299-2800,Ecom44016@toyota.com,https://www.whiterivertoyota.com
46081,Five Star Toyota,212 South Boone Street,Aberdeen,WA,98520,(360) 532-0650,allene@fivestarmotors.com,https://www.fivestartoyota.com
46003,Doxon Toyota,3405 N. Auburn Way,Auburn,WA,98002,(253) 833-4555,Ecom46003@toyota.com,https://www.doxontoyota.com
46108,Michael's Toyota of Bellevue,3080 148th Ave.SE Ste. A,Bellevue,WA,98007,(425) 455-9500,,https://www.toyotaofbellevue.com
46087,Heartland Toyota,901 West Hills Blvd.,Bremerton,WA,98312,(360) 377-1200,Ecom46087@toyota.com,https://www.heartlandtoyota.com
46076,Burien Toyota,15025 First Avenue South,Burien,WA,98148,(206) 243-0700,Ecom46076@toyota.com,https://www.burientoyota.com
46078,Foothills Toyota,1881 Bouslog Road,Burlington,WA,98233,(360) 757-7575,Ecom46078@toyota.com,https://www.foothillstoyota.com
46073,I-5 Toyota,1950 NW Louisiana Avenue,Chehalis,WA,98532,(360) 740-9300,info@i-5cars.com,https://www.i-5toyota.com
46106,Colville Toyota,160 W. Third Avenue,Colville,WA,99114,(509) 684-6251,,https://www.colvilletoyota.com
46080,Town Toyota,"500 3rd Street, S.E.",East Wenatchee,WA,98802,(509) 888-5000,Ecom46080@toyota.com,https://www.towntoyota.com
46109,Swickard Toyota,21300 Highway 99 South,Edmonds,WA,98026,(425) 775-4422,,https://www.swickardtoyota.com
46009,Rodland Toyota,6816 Evergreen Way,Everett,WA,98203,(425) 353-1111,lindsay@rodlandtoyota.com,https://www.rodlandtoyota.com
46093,Dick Hannah Toyota,2632 Coweeman Park Drive,Kelso,WA,98626,(360) 425-2730,Ecom46093@toyota.com,https://www.dickhannahtoyota.com
46112,Toyota of Tri-Cities,6321 W. Canal Drive,Kennewick,WA,99336,(509) 736-9900,,https://www.toyotaoftricities.com
46089,Toyota of Kirkland,13210 NE 124th St,Kirkland,WA,98034,(425) 814-9696,Ecom46089@toyota.com,https://www.toyotaofkirkland.com
46104,Marysville Toyota,16120 Smokey Point Blvd.,Marysville,WA,98271,(360) 651-0200,,https://marysvilletoyota.com
46100,Toyota of Pullman,8683 SR-270,Pullman,WA,99163,(509) 872-3600,Ecom46100@toyota.com,https://www.toyotaofpullman.com
46042,Toyota of Puyallup,1400 River Road,Puyallup,WA,98371,(253) 286-6000,Ecom46042@toyota.com,https://www.toyotaofpuyallup.com
46101,Toyota of Renton,150 SW 7th Street,Renton,WA,98057,(425) 228-4700,Ecom46101@toyota.com,https://www.toyotaofrenton.com
46094,Toyota of Lake City,"13355 Lake City Way, N.E.",Seattle,WA,98125,(206) 367-0080,Ecom46094@toyota.com,https://www.toyotaoflakecity.com
46086,Toyota of Seattle,1925 Airport Way South,Seattle,WA,98134,(206) 382-4300,Ecom46086@toyota.com,https://www.toyotaofseattle.com
46110,Findlay Toyota Spokane,1128 West Third Avenue,Spokane,WA,99201,(509) 455-8770,,https://www.findlaytoyotaspokane.com
46092,AutoNation Toyota Spokane Valley,8600 East Sprague Avenue,Spokane Valley,WA,99212,(509) 850-9359,Ecom46092@toyota.com,https://www.autonationtoyotaspokanevalley.com
46067,Titus-Will Toyota,3506 S Sprague Avenue,Tacoma,WA,98409,(253) 475-4151,Ecom46067@toyota.com,https://www.tituswilltoyota.com
46088,Toyota of Tacoma,7815 South Tacoma Way,Tacoma,WA,98409,(253) 475-4816,Ecom46088@toyota.com,https://www.toyotaoftacoma.com
46013,Toyota of Olympia,6969 Tyee Drive SW,Tumwater,WA,98512,(360) 539-3939,Ecom46013@toyota.com,https://www.toyotaofolympia.com
46095,Bud Clary Toyota of Yakima,2230 Longfibre Road,Union Gap,WA,98903,(509) 575-4868,Ecom46095@toyota.com,https://www.budclarytoyotaofyakima.com
46071,Vancouver Toyota,10455 NE 53rd Street,Vancouver,WA,98662,(360) 253-4440,Ecom46071@toyota.com,https://www.vancouvertoyota.com
46107,Walla Walla Toyota,606 N. Wilbur Avenue,Walla Walla,WA,99362,(509) 525-1920,,https://www.wallawallatoyota.com
48075,Kolosso Toyota,3000 W. Wisconsin Avenue,Appleton,WI,54914,(920) 738-3666,,https://www.kolossotoyota.com
48069,Marthaler Toyota of Ashland,2301 Lakeshore Drive East,Ashland,WI,54806,(715) 682-5252,,https://www.ashland-toyota.com
48065,Toyota of Brookfield,20655 West Capitol Drive,Brookfield,WI,53045,(262) 781-2626,tob@Napleton.com,https://www.toyotaofbrookfield.com
48027,Markquart Toyota,1844 Commercial Blvd.,Chippewa Falls,WI,54729,(715) 834-4440,Ecom48027@toyota.com,https://www.markquarttoyota.com
48072,Umansky Toyota,1620 W. Silver Spring Dr.,Glendale,WI,53209,(414) 228-1450,,https://www.umanskytoyota.com
48005,Le Mieux & Son Toyota,2550 South Oneida Street,Green Bay,WI,54304,(920) 496-2200,Ecom48005@toyota.com,https://www.lemieuxtoyota.com
48045,Hesser Toyota,1811 Humes Road,Janesville,WI,53545,(608) 754-7754,Ecom48045@toyota.com,https://www.hessertoyota.com
48067,Kenosha Toyota,8180 120th Avenue,Kenosha,WI,53142,(262) 857-1700,,https://www.kenoshatoyota.com
48060,LeadCar Toyota La Crosse,800 Third Street South,La Crosse,WI,54601,(608) 793-7000,Ecom48060@toyota.com,https://www.leadcartoyotalacrosse.com
48061,East Madison Toyota,3501 Lancaster Drive,Madison,WI,53718,(608) 240-7900,jwineke@penskeautomotive.com,https://eastmadisontoyota.com
48071,Smart Motors Toyota,5901 Odana Road,Madison,WI,53719,(608) 275-7808,,https://www.smarttoyota.com
48036,Heiser Toyota,11301 West Metro Auto Mall,Milwaukee,WI,53224,(414) 357-2100,Ecom48036@toyota.com,https://www.heisertoyota.com
48074,Serra Toyota,5727 S. 27th Street,Milwaukee,WI,53221,(414) 281-3100,,https://www.serratoyotamke.com
48053,Ruda Chevrolet/Toyota,104 Eighth Street,Monroe,WI,53566,(608) 325-7770,Ecom48053@toyota.com,https://www.rudatoyota.com
48068,Zeigler Toyota of Racine,13350 Kilbourn Drive,Mount Pleasant,WI,53177,(262) 886-5111,zeiglertoyota@gmail.com,https://www.zeiglertoyotaracine.com
48051,Bergstrom Toyota,3245 S. Washburn Street,Oshkosh,WI,54904,(920) 966-1616,Ecom48051@toyota.com,https://www.bergstromtoyota.com
48046,Mark Toyota of Plover,1765 Park Avenue,Plover,WI,54467,(715) 342-5040,Ecom48046@toyota.com,https://www.marktoyota.com
48066,Rhinelander Toyota,1955 North Stevens Street,Rhinelander,WI,54501,(715) 365-8696,,https://www.rhinelandertoyota.com
48073,Dahl Toyota Sheboygan,4120 N. Frontage Road,Sheboygan,WI,53081,(920) 208-0200,,https://www.dahltoyotasheboygan.com
48021,Kari Toyota,1002 Tower Avenue,Superior,WI,54880,(715) 394-4429,Ecom48021@toyota.com,https://www.karitoyota.com
48059,LeadCar Toyota Wausau,2900 N. 20th Avenue,Wausau,WI,54401,(715) 675-7775,Ecom48059@toyota.com,https://www.leadcartoyotawausau.com
48070,Wilde Toyota,3225 South 108th Street,West Allis,WI,53227,(414) 545-8010,,https://www.wildetoyota.com
48049,Russ Darrow Toyota,2700 W. Washington St.,West Bend,WI,53095,(262) 334-9411,Ecom48049@toyota.com,https://www.russdarrowtoyota.com
47037,Victory Toyota Barboursville,1 Superior Way,Barboursville,WV,25504,(304) 736-5400,,https://www.victorytoyotabarboursville.com
47025,L & S Toyota of Beckley,248 Auto Plaza,Beckley,WV,25801,(304) 252-8548,Ecom47025@toyota.com,https://www.lstoyotabeckley.com
47027,Buckhannon Toyota,63 Brushy Fork Road,Buckhannon,WV,26201,(304) 472-7200,Ecom47027@toyota.com,https://www.buckhannontoyota.com
47033,Thornhill Toyota,63 Admiral Road,Chapmanville,WV,25508,(304) 855-8200,leads@getthornhill.com,https://www.thornhilltoyotawv.com
47038,Victory Toyota Charleston,1905 Patrick Street Plaza,Charleston,WV,25387,(304) 513-3777,,https://www.victorytoyotacharleston.com
47034,CMA's Toyota of Martinsburg,650 Foxcroft Avenue,Martinsburg,WV,25401,(304) 263-3341,info@martinsburg.cmacars.com,https://www.cmastoyotaofmartinsburg.com
47036,Moses Toyota of Morgantown,60 Don Knotts Blvd.,Morgantown,WV,26508,(304) 296-4401,,https://www.mosestoyotaofmorgantown.com
47039,Parkersburg Toyota,3101 E 7th Street,Parkersburg,WV,26101,(304) 424-5122,,https://www.parkersburgtoyota.com
47018,Ramey Toyota,135 Frazier Drive,Princeton,WV,24740,(304) 487-2279,Ecom47018@toyota.com,https://www.rameytoyota.com
47030,Moses Toyota,1433 MacCorkle Avenue,Saint Albans,WV,25177,(304) 727-7777,,https://www.mosestoyota.com
47035,Victory Toyota Highlands,55 Robinson Drive,Triadelphia,WV,26059,(304) 232-1880,,https://www.victorytoyotahighlands.com
47029,Dan Cava's Toyota World,2510 White Hall Boulevard,White Hall,WV,26554,(304) 366-2720,Ecom47029@toyota.com,https://www.cavatoyota.com
49034,Vista Toyota,6280 E. 2nd Street,Casper,WY,82609,(307) 237-3700,,https://www.vistatoyotawy.com
49033,Ken Garff Toyota Cheyenne,2300 Westland Road,Cheyenne,WY,82001,(307) 757-2000,kharris@kengarff.com,https://www.kengarfftoyotacheyenne.com
49029,Fremont Toyota,103 Fremont Way,Lander,WY,82520,(307) 332-5011,Ecom49029@toyota.com,https://www.fremonttoyotalander.com
49031,Toyota of Laramie,2310 East Grand Avenue,Laramie,WY,82070,(307) 742-7423,,https://www.toyotaoflaramie.com
49032,Yellowstone Toyota,1105 W. Coulter Avenue,Powell,WY,82435,(307) 754-5400,,https://www.yellowstonetoyota.com
49025,Rock Springs Toyota,401 N. Center Street,Rock Springs,WY,82901,(307) 362-5015,rockspringstoyota@hotmail.com,https://www.rockspringstoyota.com
49030,Fremont Toyota of Sheridan,1614 Coffeen Avenue,Sheridan,WY,82801,(307) 674-4423,Ecom49030@toyota.com,https://www.fremonttoyotasheridan.com
